[
    {
        "id": "205737",
        "title": "Le Violon d'Ingres - Christian Constant",
        "address": {
            "address_locality": "Paris",
            "postal_code": "75007"
        },
        "restaurant_url": "https://www.lafourchette.com/restaurant/Le Violon d'Ingres - Christian Constant/205737#info"
    },
    {
        "id": "2828",
        "title": "Le Chiberta - Stephane Laruelle - Guy Savoy",
        "address": {
            "address_locality": "Paris",
            "postal_code": "75008"
        },
        "restaurant_url": "https://www.lafourchette.com/restaurant/Le Chiberta - Stephane Laruelle - Guy Savoy/2828#info"
    },
    {
        "id": "310829",
        "title": "Dominique Bouchet",
        "address": {
            "address_locality": "Paris",
            "postal_code": "75008"
        },
        "restaurant_url": "https://www.lafourchette.com/restaurant/Dominique Bouchet/310829#info"
    },
    {
        "id": "26201",
        "title": "Restaurant Auguste - Gael Orieux",
        "address": {
            "address_locality": "Paris",
            "postal_code": "75007"
        },
        "restaurant_url": "https://www.lafourchette.com/restaurant/Restaurant Auguste - Gael Orieux/26201#info"
    },
    {
        "id": "12900",
        "title": "Pierre Orsi",
        "address": {
            "address_locality": "Lyon",
            "postal_code": "69006"
        },
        "restaurant_url": "https://www.lafourchette.com/restaurant/Pierre Orsi/12900#info"
    },
    {
        "id": "9228",
        "title": "Le Baudelaire - Hotel Le Burgundy Paris",
        "address": {
            "address_locality": "Paris",
            "postal_code": "75001"
        },
        "restaurant_url": "https://www.lafourchette.com/restaurant/Le Baudelaire - Hotel Le Burgundy Paris/9228#info"
    },
    {
        "id": "25896",
        "title": "Benoit - Alain Ducasse",
        "address": {
            "address_locality": "Paris",
            "postal_code": "75004"
        },
        "restaurant_url": "https://www.lafourchette.com/restaurant/Benoit - Alain Ducasse/25896#info"
    },
    {
        "id": "682",
        "title": "L'Oasis - Stephane Raimbault",
        "address": {
            "address_locality": "La Napoule",
            "postal_code": "06210"
        },
        "restaurant_url": "https://www.lafourchette.com/restaurant/L'Oasis - Stephane Raimbault/682#info"
    },
    {
        "id": "122",
        "title": "La Grande Cascade - Frederic Robert",
        "address": {
            "address_locality": "Paris",
            "postal_code": "75016"
        },
        "restaurant_url": "https://www.lafourchette.com/restaurant/La Grande Cascade - Frederic Robert/122#info"
    },
    {
        "id": "60777",
        "title": "1912",
        "address": {
            "address_locality": "Trouville-sur-Mer",
            "postal_code": "14360"
        },
        "restaurant_url": "https://www.lafourchette.com/restaurant/1912/60777#info"
    },
    {
        "id": "250",
        "title": "Lasserre",
        "address": {
            "address_locality": "Paris",
            "postal_code": "75008"
        },
        "restaurant_url": "https://www.lafourchette.com/restaurant/Lasserre/250#info"
    },
    {
        "id": "3485",
        "title": "Manoir de la Boulaie - Laurent Saudeau",
        "address": {
            "address_locality": "Haute-Goulaine",
            "postal_code": "44115"
        },
        "restaurant_url": "https://www.lafourchette.com/restaurant/Manoir de la Boulaie - Laurent Saudeau/3485#info"
    },
    {
        "id": "405",
        "title": "Maison Rostang",
        "address": {
            "address_locality": "Paris",
            "postal_code": "75017"
        },
        "restaurant_url": "https://www.lafourchette.com/restaurant/Maison Rostang/405#info"
    },
    {
        "id": "269585",
        "title": "La Scene Theleme",
        "address": {
            "address_locality": "Paris",
            "postal_code": "75017"
        },
        "restaurant_url": "https://www.lafourchette.com/restaurant/La Scene Theleme/269585#info"
    },
    {
        "id": "2185",
        "title": "Antoine - Thibault Sombardier",
        "address": {
            "address_locality": "Paris",
            "postal_code": "75116"
        },
        "restaurant_url": "https://www.lafourchette.com/restaurant/Antoine - Thibault Sombardier/2185#info"
    },
    {
        "id": "713",
        "title": "L'Arome",
        "address": {
            "address_locality": "Paris",
            "postal_code": "75008"
        },
        "restaurant_url": "https://www.lafourchette.com/restaurant/L'Arome/713#info"
    },
    {
        "id": "275457",
        "title": "Emporio Armani Ristorante",
        "address": {
            "address_locality": "Paris",
            "postal_code": "75006"
        },
        "restaurant_url": "https://www.lafourchette.com/restaurant/Emporio Armani Ristorante/275457#info"
    },
    {
        "id": "5020",
        "title": "La Fourchette du Printemps - Nicolas Mouton",
        "address": {
            "address_locality": "Paris",
            "postal_code": "75017"
        },
        "restaurant_url": "https://www.lafourchette.com/restaurant/La Fourchette du Printemps - Nicolas Mouton/5020#info"
    },
    {
        "id": "310489",
        "title": "Le Saint-Laurent",
        "address": {
            "address_locality": "Paris",
            "postal_code": "75008"
        },
        "restaurant_url": "https://www.lafourchette.com/restaurant/Le Saint-Laurent/310489#info"
    }
]