[
    {
        "title": "L'Écrin",
        "address": {
            "address_locality": "10 place de la Concorde",
            "postal_code": "75008"
        }
    },
    {
        "title": "AM par Alexandre Mazzia",
        "address": {
            "address_locality": "9 rue François Rocca",
            "postal_code": "13008"
        }
    },
    {
        "title": "Le Domaine du Colombier",
        "address": {
            "address_locality": "270 Chemin de Malombre",
            "postal_code": "26780"
        }
    },
    {
        "title": "Dominique Bucaille",
        "address": {
            "address_locality": "715 av. des Savels",
            "postal_code": "04100"
        }
    },
    {
        "title": "Auberge St-Laurent",
        "address": {
            "address_locality": "1 rue Fontaine",
            "postal_code": "68510"
        }
    },
    {
        "title": "Le Clair de la Plume",
        "address": {
            "address_locality": "Place du Mail",
            "postal_code": "26230"
        }
    },
    {
        "title": "Grand Hôtel du Lion d'Or",
        "address": {
            "address_locality": "69 r. Clemenceau",
            "postal_code": "41200"
        }
    },
    {
        "title": "Logis de la Cadène",
        "address": {
            "address_locality": "Place du Marche au Bois",
            "postal_code": "33330"
        }
    },
    {
        "title": "Jean-Claude Leclerc",
        "address": {
            "address_locality": "12 rue St-Adjutor",
            "postal_code": "63000"
        }
    },
    {
        "title": "Manoir de la Boulaie",
        "address": {
            "address_locality": "33 rue Chapelle St-Martin",
            "postal_code": "44115"
        }
    },
    {
        "title": "Les Voiles d'Or",
        "address": {
            "address_locality": "2 chemin de la Falaise",
            "postal_code": "76200"
        }
    },
    {
        "title": "Les Rosiers",
        "address": {
            "address_locality": "32 av. Beau Soleil",
            "postal_code": "64200"
        }
    },
    {
        "title": "Les Clefs d'Argent",
        "address": {
            "address_locality": "333 Avenue des Martyrs de la Résistance",
            "postal_code": "40000"
        }
    },
    {
        "title": "Frédéric Simonin",
        "address": {
            "address_locality": "25 rue Bayen",
            "postal_code": "75017"
        }
    },
    {
        "title": "Flaveur",
        "address": {
            "address_locality": "25 Rue Gubernatis",
            "postal_code": "06000"
        }
    },
    {
        "title": "Le Millénaire",
        "address": {
            "address_locality": "4 rue Bertin",
            "postal_code": "51100"
        }
    },
    {
        "title": "Le Sénéchal",
        "address": {
            "address_locality": "Sauveterre de Rouergue",
            "postal_code": "12800"
        }
    },
    {
        "title": "Loiseau des Ducs",
        "address": {
            "address_locality": "3 Rue Vauban",
            "postal_code": "21000"
        }
    },
    {
        "title": "L'Amphitryon",
        "address": {
            "address_locality": "127 r. du Col. -Müller",
            "postal_code": "56100"
        }
    },
    {
        "title": "Le Pavillon des Boulevards",
        "address": {
            "address_locality": "120 r. Croix-de-Seguey",
            "postal_code": "33000"
        }
    },
    {
        "title": "Restaurant du Palais Royal",
        "address": {
            "address_locality": "110 Galerie de Valois - Jardin du Palais Royal",
            "postal_code": "75001"
        }
    },
    {
        "title": "Auberge de la Diligence",
        "address": {
            "address_locality": "4 r. de la Libération",
            "postal_code": "49440"
        }
    },
    {
        "title": "Fontevraud Le Restaurant",
        "address": {
            "address_locality": "38 rue St-Jean-de-l'Habit",
            "postal_code": "49590"
        }
    },
    {
        "title": "Les Cèdres",
        "address": {
            "address_locality": "25 Rue Henri MACHON",
            "postal_code": "26600"
        }
    },
    {
        "title": "Apicius",
        "address": {
            "address_locality": "Marché Saint Pierre 1 étage",
            "postal_code": "63000"
        }
    },
    {
        "title": "Shang Palace",
        "address": {
            "address_locality": "10 Avenue d'Iéna",
            "postal_code": "75016"
        }
    },
    {
        "title": "Les Terrasses de Lyon",
        "address": {
            "address_locality": "25, montée Saint BArthelémy",
            "postal_code": "69005"
        }
    },
    {
        "title": "Les Terraillers",
        "address": {
            "address_locality": "11 Route Chemin-Neuf",
            "postal_code": "06410"
        }
    },
    {
        "title": "Maison Rostang",
        "address": {
            "address_locality": "20 rue Rennequin",
            "postal_code": "75017"
        }
    },
    {
        "title": "Les Berceaux",
        "address": {
            "address_locality": "13 rue des Berceaux",
            "postal_code": "51200"
        }
    },
    {
        "title": "Mavrommatis",
        "address": {
            "address_locality": "42 rue Daubenton",
            "postal_code": "75005"
        }
    },
    {
        "title": "La Table d'Uzès",
        "address": {
            "address_locality": "18 rue du Docteur Blanchard",
            "postal_code": "30700"
        }
    },
    {
        "title": "Emporio Armani Ristorante",
        "address": {
            "address_locality": "149 Boulevard Saint-Germain",
            "postal_code": "75006"
        }
    },
    {
        "title": "Auberge de l'Abbaye",
        "address": {
            "address_locality": "47 place des anciens Combattants",
            "postal_code": "01500"
        }
    },
    {
        "title": "Le Cinq",
        "address": {
            "address_locality": "31 av. George V",
            "postal_code": "75008"
        }
    },
    {
        "title": "Les Ducs de Lorraine",
        "address": {
            "address_locality": "5 av. Provence",
            "postal_code": "88000"
        }
    },
    {
        "title": "Les Trois Soleils de Montal",
        "address": {
            "address_locality": "St-Jean-Lespinasse",
            "postal_code": "46400"
        }
    },
    {
        "title": "René et Maxime Meilleur",
        "address": {
            "address_locality": "Saint Marcel",
            "postal_code": "73440"
        }
    },
    {
        "title": "La Table de la Ferme",
        "address": {
            "address_locality": "Vallée de l'Ortolo",
            "postal_code": "20100"
        }
    },
    {
        "title": "Quinsou",
        "address": {
            "address_locality": "33 r. de l'Abbé-Grégoire",
            "postal_code": "75006"
        }
    },
    {
        "title": "Jean Sulpice",
        "address": {
            "address_locality": "303 rte du Port",
            "postal_code": "74290"
        }
    },
    {
        "title": "Pierre Reboul",
        "address": {
            "address_locality": "260 r. Guillaume-du-Vair",
            "postal_code": "13546"
        }
    },
    {
        "title": "Le Grand Cap",
        "address": {
            "address_locality": "chemin du Phare",
            "postal_code": "11370"
        }
    },
    {
        "title": "Le Chateaubriand",
        "address": {
            "address_locality": "129 av. Parmentier",
            "postal_code": "75011"
        }
    },
    {
        "title": "Baumanière 1850",
        "address": {
            "address_locality": "rte de Bellecôte",
            "postal_code": "73120"
        }
    },
    {
        "title": "Jérôme Feck",
        "address": {
            "address_locality": "19 pl. Mgr-Tissier",
            "postal_code": "51000"
        }
    },
    {
        "title": "Transparence \"La Table de Patrick Fréchin\"",
        "address": {
            "address_locality": "28 r. Stanislas",
            "postal_code": "54000"
        }
    },
    {
        "title": "Le St-Martin",
        "address": {
            "address_locality": "1 r. du Gén.-Leclerc",
            "postal_code": "25200"
        }
    },
    {
        "title": "Maison Crouzil et Hôtel L'Écrin",
        "address": {
            "address_locality": "20 les Quais",
            "postal_code": "22130"
        }
    },
    {
        "title": "Le Pot d'Étain",
        "address": {
            "address_locality": "4 av. de la République",
            "postal_code": "90400"
        }
    },
    {
        "title": "L'Océan",
        "address": {
            "address_locality": "43 bd Thiers",
            "postal_code": "64500"
        }
    },
    {
        "title": "Le Skiff Club",
        "address": {
            "address_locality": "1 av. Louis-Gaume",
            "postal_code": "33260"
        }
    },
    {
        "title": "Clovis",
        "address": {
            "address_locality": "21 Grand-Rue",
            "postal_code": "06140"
        }
    },
    {
        "title": "Étude",
        "address": {
            "address_locality": "14 r. Bouquet-de-Longchamp",
            "postal_code": "75016"
        }
    },
    {
        "title": "Auberge St-Walfrid",
        "address": {
            "address_locality": "58 r. de Grosbliederstroff",
            "postal_code": "57200"
        }
    },
    {
        "title": "Akrame",
        "address": {
            "address_locality": "7 r. Tronchet",
            "postal_code": "75008"
        }
    },
    {
        "title": "Restaurant H",
        "address": {
            "address_locality": "13 r. Jean-Beausire",
            "postal_code": "75004"
        }
    },
    {
        "title": "Ken Kawasaki",
        "address": {
            "address_locality": "15 r. Caulaincourt",
            "postal_code": "75018"
        }
    },
    {
        "title": "Pertinence",
        "address": {
            "address_locality": "29 r. de l'Exposition",
            "postal_code": "75007"
        }
    },
    {
        "title": "Divellec",
        "address": {
            "address_locality": "18 r. Fabert",
            "postal_code": "75007"
        }
    },
    {
        "title": "Montée",
        "address": {
            "address_locality": "9 r. Léopold-Robert",
            "postal_code": "75014"
        }
    },
    {
        "title": "Laurent",
        "address": {
            "address_locality": "41 av. Gabriel",
            "postal_code": "75008"
        }
    },
    {
        "title": "Pages",
        "address": {
            "address_locality": "4 r. Auguste-Vacquerie",
            "postal_code": "75016"
        }
    },
    {
        "title": "L'Hysope",
        "address": {
            "address_locality": "25 r. de l'Aurore",
            "postal_code": "17220"
        }
    },
    {
        "title": "Mickaël Féval",
        "address": {
            "address_locality": "11 Petite-Rue-St-Jean",
            "postal_code": "13100"
        }
    },
    {
        "title": "Allium",
        "address": {
            "address_locality": "88 bd de Créac'h-Gwen",
            "postal_code": "29000"
        }
    },
    {
        "title": "L'Aromate",
        "address": {
            "address_locality": "2 r. Gustave Deloye",
            "postal_code": "06000"
        }
    },
    {
        "title": "La Vieille Tour",
        "address": {
            "address_locality": "75 r. de la Tour",
            "postal_code": "22190"
        }
    },
    {
        "title": "Château de Codignat",
        "address": {
            "address_locality": "Bort l'Etang",
            "postal_code": "63190"
        }
    },
    {
        "title": "Les Genêts",
        "address": {
            "address_locality": "21 bis Rue de l'Océan",
            "postal_code": "85470"
        }
    },
    {
        "title": "Sushi B",
        "address": {
            "address_locality": "5 r. Rameau",
            "postal_code": "75002"
        }
    },
    {
        "title": "Le Jasmin",
        "address": {
            "address_locality": "Lieu-dit Lalande",
            "postal_code": "47140"
        }
    },
    {
        "title": "Les Explorateurs",
        "address": {
            "address_locality": "place du Slalom",
            "postal_code": "73440"
        }
    },
    {
        "title": "Le Cloître",
        "address": {
            "address_locality": "Le Cloitre",
            "postal_code": "04300"
        }
    },
    {
        "title": "La Liégeoise",
        "address": {
            "address_locality": "digue de mer",
            "postal_code": "62930"
        }
    },
    {
        "title": "Paloma",
        "address": {
            "address_locality": "47 Avenue du Moulin de la Croix",
            "postal_code": "06250"
        }
    },
    {
        "title": "Casadelmar",
        "address": {
            "address_locality": "Route de la Plage de Palombaggia",
            "postal_code": "20137"
        }
    },
    {
        "title": "Sylvestre",
        "address": {
            "address_locality": "79 rue St-Dominique",
            "postal_code": "75007"
        }
    },
    {
        "title": "I Salti",
        "address": {
            "address_locality": "route du Reginu",
            "postal_code": "20226"
        }
    },
    {
        "title": "La Bergerie",
        "address": {
            "address_locality": "D999",
            "postal_code": "63490"
        }
    },
    {
        "title": "Lou Cigalon-Maison Martin",
        "address": {
            "address_locality": "6 bd Carnot",
            "postal_code": "06560"
        }
    },
    {
        "title": "Le Prieuré",
        "address": {
            "address_locality": "7 pl. du Chapitre",
            "postal_code": "30400"
        }
    },
    {
        "title": "La Ribaudière",
        "address": {
            "address_locality": "2 pl. du Port",
            "postal_code": "16200"
        }
    },
    {
        "title": "Mathieu Pacaud - Histoires",
        "address": {
            "address_locality": "85 Avenue Kléber",
            "postal_code": "75016"
        }
    },
    {
        "title": "Château de Pray",
        "address": {
            "address_locality": "Rue du Cèdre",
            "postal_code": "37400"
        }
    },
    {
        "title": "Assiette Champenoise",
        "address": {
            "address_locality": "40 av. Paul Vaillant-Couturier",
            "postal_code": "51430"
        }
    },
    {
        "title": "La Ville Blanche",
        "address": {
            "address_locality": "La Ville Blanche",
            "postal_code": "22300"
        }
    },
    {
        "title": "Le Bois sans Feuilles",
        "address": {
            "address_locality": "728 Route de Villerest",
            "postal_code": "42155"
        }
    },
    {
        "title": "La Roya",
        "address": {
            "address_locality": "plage de la Roya",
            "postal_code": "20217"
        }
    },
    {
        "title": "La Table de l'Espadon",
        "address": {
            "address_locality": "15 Place Vendôme",
            "postal_code": "75001"
        }
    },
    {
        "title": "Le Moulin du Roc",
        "address": {
            "address_locality": "Avenue Eugène Le Roy",
            "postal_code": "24530"
        }
    },
    {
        "title": "Patrick Jeffroy",
        "address": {
            "address_locality": "20 rue du Kelenn",
            "postal_code": "29660"
        }
    },
    {
        "title": "Jean-Luc Tartarin",
        "address": {
            "address_locality": "Square Saint-Roch",
            "postal_code": "76600"
        }
    },
    {
        "title": "Mère Brazier",
        "address": {
            "address_locality": "12 rue Royale",
            "postal_code": "69001"
        }
    },
    {
        "title": "William Frachot",
        "address": {
            "address_locality": "5 rue Michelet",
            "postal_code": "21000"
        }
    },
    {
        "title": "Auberge du Bon Laboureur",
        "address": {
            "address_locality": "6 r. Dr Bretonneau",
            "postal_code": "37150"
        }
    },
    {
        "title": "Le Pêché Gourmand",
        "address": {
            "address_locality": "2 rte de Gap",
            "postal_code": "05100"
        }
    },
    {
        "title": "La Tour des Vents",
        "address": {
            "address_locality": "Le Moulin de Malfourat",
            "postal_code": "24240"
        }
    },
    {
        "title": "La Robe",
        "address": {
            "address_locality": "3 pl. Reveillère-Lepeaux",
            "postal_code": "85600"
        }
    },
    {
        "title": "L'Almandin",
        "address": {
            "address_locality": "Boulevard de l'Almandin",
            "postal_code": "66750"
        }
    },
    {
        "title": "1217",
        "address": {
            "address_locality": "le bourg",
            "postal_code": "69620"
        }
    },
    {
        "title": "Le Relais Bernard Loiseau",
        "address": {
            "address_locality": "2, rue d'Argentine",
            "postal_code": "21210"
        }
    },
    {
        "title": "Alexandre",
        "address": {
            "address_locality": "2 rue Xavier Tronc",
            "postal_code": "30128"
        }
    },
    {
        "title": "Sur Mesure par Thierry Marx",
        "address": {
            "address_locality": "251 r. St-Honoré",
            "postal_code": "75001"
        }
    },
    {
        "title": "Numéro 3",
        "address": {
            "address_locality": "3 rue du Général de Gaulle",
            "postal_code": "78490"
        }
    },
    {
        "title": "Le Quinzième - Cyril Lignac",
        "address": {
            "address_locality": "14 rue Cauchy",
            "postal_code": "75015"
        }
    },
    {
        "title": "Chapelle Saint-Martin",
        "address": {
            "address_locality": "33, Saint Martin du Fault",
            "postal_code": "87510"
        }
    },
    {
        "title": "Rackham",
        "address": {
            "address_locality": "27 pl. Lacaze Duthiers rčs de l'église",
            "postal_code": "29680"
        }
    },
    {
        "title": "Restaurant du Château",
        "address": {
            "address_locality": "15 avenue des Reynats",
            "postal_code": "24650"
        }
    },
    {
        "title": "L'Auberge de Bagatelle",
        "address": {
            "address_locality": "489 av. Bollée",
            "postal_code": "72000"
        }
    },
    {
        "title": "La Merise",
        "address": {
            "address_locality": "7 r. d'Eschbach",
            "postal_code": "67580"
        }
    },
    {
        "title": "Comice",
        "address": {
            "address_locality": "31 av. de Versailles",
            "postal_code": "75016"
        }
    },
    {
        "title": "Jean Chauvel",
        "address": {
            "address_locality": "33 av. Général-Leclerc",
            "postal_code": "92100"
        }
    },
    {
        "title": "Ima",
        "address": {
            "address_locality": "20 bd de la Tour-d'Auvergne",
            "postal_code": "35000"
        }
    },
    {
        "title": "La Table d'Hôtes - Le Quatrième Mur",
        "address": {
            "address_locality": "2 pl. de la Comédie",
            "postal_code": "33000"
        }
    },
    {
        "title": "Palégrié",
        "address": {
            "address_locality": "Les Ritons",
            "postal_code": "38250"
        }
    },
    {
        "title": "Garance",
        "address": {
            "address_locality": "34 r. St-Dominique",
            "postal_code": "75007"
        }
    },
    {
        "title": "La Marine",
        "address": {
            "address_locality": "11 r. de Paris",
            "postal_code": "50270"
        }
    },
    {
        "title": "Garopapilles",
        "address": {
            "address_locality": "62 r. Abbé-de-L'Epée",
            "postal_code": "33000"
        }
    },
    {
        "title": "La Table by La Villa",
        "address": {
            "address_locality": "chemin de Notre-Dame-de-la-Serra",
            "postal_code": "20260"
        }
    },
    {
        "title": "Le Marcq",
        "address": {
            "address_locality": "944 av. de la République",
            "postal_code": "59700"
        }
    },
    {
        "title": "Pèir",
        "address": {
            "address_locality": "r. de la Combe",
            "postal_code": "84220"
        }
    },
    {
        "title": "Auberge du Paradis",
        "address": {
            "address_locality": "Le Plâtre-Durand",
            "postal_code": "71570"
        }
    },
    {
        "title": "Le Clos St-Pierre",
        "address": {
            "address_locality": "pl. de la Mairie",
            "postal_code": "06650"
        }
    },
    {
        "title": "Azimut",
        "address": {
            "address_locality": "273 r. de la Madelon",
            "postal_code": "73120"
        }
    },
    {
        "title": "L'Émulsion",
        "address": {
            "address_locality": "57 rte de Lyon",
            "postal_code": "38080"
        }
    },
    {
        "title": "Le Pousse-Pied",
        "address": {
            "address_locality": "84 bd des Vendéens",
            "postal_code": "85360"
        }
    },
    {
        "title": "Le Pavillon",
        "address": {
            "address_locality": "av. du Verger",
            "postal_code": "62520"
        }
    },
    {
        "title": "Rodolphe",
        "address": {
            "address_locality": "35 r. Percière",
            "postal_code": "76000"
        }
    },
    {
        "title": "Le Grand Restaurant - Jean-François Piège",
        "address": {
            "address_locality": "7 r. d'Aguesseau",
            "postal_code": "75008"
        }
    },
    {
        "title": "Racine",
        "address": {
            "address_locality": "6 pl. Godinot",
            "postal_code": "51100"
        }
    },
    {
        "title": "U Santa Marina",
        "address": {
            "address_locality": "Marina di Santa Giulia",
            "postal_code": "20137"
        }
    },
    {
        "title": "Château de Vauchoux",
        "address": {
            "address_locality": "",
            "postal_code": "70170"
        }
    },
    {
        "title": "La Fourchette du Printemps",
        "address": {
            "address_locality": "30 r. du Printemps",
            "postal_code": "75017"
        }
    },
    {
        "title": "Haut Bonheur de la Table",
        "address": {
            "address_locality": "18 Grand-Place",
            "postal_code": "59670"
        }
    },
    {
        "title": "Château Blanchard",
        "address": {
            "address_locality": "36 rte de St-Galmier",
            "postal_code": "42140"
        }
    },
    {
        "title": "Auberge de l'Île Barbe",
        "address": {
            "address_locality": "1 Place Notre-Dame",
            "postal_code": "69009"
        }
    },
    {
        "title": "Le Grand Cerf",
        "address": {
            "address_locality": "50 rte Nationale",
            "postal_code": "51500"
        }
    },
    {
        "title": "Le Sérac",
        "address": {
            "address_locality": "22 r. de la Comtesse",
            "postal_code": "74170"
        }
    },
    {
        "title": "Gaya Rive Gauche par Pierre Gagnaire",
        "address": {
            "address_locality": "44 r. du Bac",
            "postal_code": "75007"
        }
    },
    {
        "title": "Apicius",
        "address": {
            "address_locality": "20 r. d'Artois",
            "postal_code": "75008"
        }
    },
    {
        "title": "Yam'Tcha",
        "address": {
            "address_locality": "121 r. St-Honoré",
            "postal_code": "75001"
        }
    },
    {
        "title": "Saturne",
        "address": {
            "address_locality": "17 r. N.-D.-des-Victoires",
            "postal_code": "75002"
        }
    },
    {
        "title": "Le Moulin des Quatre Saisons",
        "address": {
            "address_locality": "r. Gallieni",
            "postal_code": "72200"
        }
    },
    {
        "title": "Auberge Le Prieuré",
        "address": {
            "address_locality": "4 Grand'Rue",
            "postal_code": "47310"
        }
    },
    {
        "title": "L'Alchémille",
        "address": {
            "address_locality": "53 rte de Lapoutroie",
            "postal_code": "68240"
        }
    },
    {
        "title": "La Maison d'à Côté",
        "address": {
            "address_locality": "17 rue de Chambord",
            "postal_code": "41350"
        }
    },
    {
        "title": "Au 14 Février",
        "address": {
            "address_locality": "Le Plâtre-Durand",
            "postal_code": "71570"
        }
    },
    {
        "title": "Henri et Joseph",
        "address": {
            "address_locality": "4 r. Léo-le-Bourgo",
            "postal_code": "56100"
        }
    },
    {
        "title": "La Bonne Auberge",
        "address": {
            "address_locality": "15 r. Nationale",
            "postal_code": "57350"
        }
    },
    {
        "title": "ES",
        "address": {
            "address_locality": "91 r. de Grenelle",
            "postal_code": "75007"
        }
    },
    {
        "title": "Château de la Treyne",
        "address": {
            "address_locality": "",
            "postal_code": "46200"
        }
    },
    {
        "title": "Les Pyrénées",
        "address": {
            "address_locality": "19 pl. Ch.-de-Gaulle",
            "postal_code": "64220"
        }
    },
    {
        "title": "L'Éveil des Sens",
        "address": {
            "address_locality": "429 bd Paul-Lintier",
            "postal_code": "53100"
        }
    },
    {
        "title": "Palm Beach",
        "address": {
            "address_locality": "route des Iles Sanguinaires",
            "postal_code": "20000"
        }
    },
    {
        "title": "Le Saint-James",
        "address": {
            "address_locality": "3 pl. Camille-Hostein",
            "postal_code": "33270"
        }
    },
    {
        "title": "À Contre Sens",
        "address": {
            "address_locality": "8-10 r. des Croisiers",
            "postal_code": "14000"
        }
    },
    {
        "title": "Le Château de Sable",
        "address": {
            "address_locality": "38 r. de l'Europe",
            "postal_code": "29840"
        }
    },
    {
        "title": "Le Montgomerie",
        "address": {
            "address_locality": "356 rte de l'Altiport",
            "postal_code": "73120"
        }
    },
    {
        "title": "Le Saint-Estève",
        "address": {
            "address_locality": "2250 route cézanne D17",
            "postal_code": "13100"
        }
    },
    {
        "title": "L'Orée de la Forêt",
        "address": {
            "address_locality": "255 r. de la Forêt",
            "postal_code": "60600"
        }
    },
    {
        "title": "Agapé",
        "address": {
            "address_locality": "51 rue Jouffroy-d'Abbans",
            "postal_code": "75017"
        }
    },
    {
        "title": "Table - Bruno Verjus",
        "address": {
            "address_locality": "3 r. de Prague",
            "postal_code": "75012"
        }
    },
    {
        "title": "Le Neuvième Art",
        "address": {
            "address_locality": "173 r. Cuvier",
            "postal_code": "69006"
        }
    },
    {
        "title": "Val d'Auge",
        "address": {
            "address_locality": "805 av. du Gén.-de-Gaulle",
            "postal_code": "59910"
        }
    },
    {
        "title": "Le Jardin des Remparts",
        "address": {
            "address_locality": "10 rue Hôtel-Dieu",
            "postal_code": "21200"
        }
    },
    {
        "title": "Les Tables de Gaspard",
        "address": {
            "address_locality": "r. Principale",
            "postal_code": "05600"
        }
    },
    {
        "title": "Auberge de la Tour",
        "address": {
            "address_locality": "Place de la Fontaine",
            "postal_code": "15220"
        }
    },
    {
        "title": "Le Grand Véfour",
        "address": {
            "address_locality": "17 rue de Beaujolais",
            "postal_code": "75001"
        }
    },
    {
        "title": "Le Beaulieu",
        "address": {
            "address_locality": "34 Bis Place République",
            "postal_code": "72000"
        }
    },
    {
        "title": "La Maison des Bois - Marc Veyrat",
        "address": {
            "address_locality": "Chemin Rural de Manigod au Col de la Croix Fry",
            "postal_code": "74230"
        }
    }
]