[
    {
        "title": "Le Jardin de Benjamin",
        "address": {
            "address_locality": "Route de Salernes",
            "postal_code": "83510"
        }
    },
    {
        "title": "La Gouesnière",
        "address": {
            "address_locality": "1 Le Limonay",
            "postal_code": "35350"
        }
    },
    {
        "title": "Pont de l'Ouysse",
        "address": {
            "address_locality": "D23",
            "postal_code": "46200"
        }
    },
    {
        "title": "Les Tables de Gaspard",
        "address": {
            "address_locality": "r. Principale",
            "postal_code": "05600"
        }
    },
    {
        "title": "MaSa",
        "address": {
            "address_locality": "112 avenue Victor-Hugo",
            "postal_code": "92100"
        }
    },
    {
        "title": "La Grande Cascade",
        "address": {
            "address_locality": "Carrefour de Longchamp",
            "postal_code": "75016"
        }
    },
    {
        "title": "Maison Clovis",
        "address": {
            "address_locality": "19 bd Brotteaux",
            "postal_code": "69006"
        }
    },
    {
        "title": "Villa Archange",
        "address": {
            "address_locality": "Rue de l'Ouest",
            "postal_code": "06110"
        }
    },
    {
        "title": "Domaine de Rochevilaine",
        "address": {
            "address_locality": "à la Pointe de Pen Lan",
            "postal_code": "56190"
        }
    },
    {
        "title": "Les Fresques",
        "address": {
            "address_locality": "13 Avenue des Mateirons",
            "postal_code": "74500"
        }
    },
    {
        "title": "Les Hautes Roches",
        "address": {
            "address_locality": "86 quai de Loire",
            "postal_code": "37210"
        }
    },
    {
        "title": "Le Coquillage",
        "address": {
            "address_locality": "Lieu-dit Le Buot",
            "postal_code": "35350"
        }
    },
    {
        "title": "Raphaël Vionnet",
        "address": {
            "address_locality": "43 Avenue du Général Leclerc",
            "postal_code": "74200"
        }
    },
    {
        "title": "Château de Sully",
        "address": {
            "address_locality": "D6",
            "postal_code": "14400"
        }
    },
    {
        "title": "La Marelle",
        "address": {
            "address_locality": "1593 av. de Lyon",
            "postal_code": "01960"
        }
    },
    {
        "title": "En Pleine Nature",
        "address": {
            "address_locality": "6 pl. de la Mairie",
            "postal_code": "31130"
        }
    },
    {
        "title": "La Grand'Vigne",
        "address": {
            "address_locality": "chemin de Smith-Haut-Lafitte",
            "postal_code": "33650"
        }
    },
    {
        "title": "L'Atelier d'Edmond",
        "address": {
            "address_locality": "au Fornet",
            "postal_code": "73150"
        }
    },
    {
        "title": "L'Essentiel",
        "address": {
            "address_locality": "29 Rue Mirabeau",
            "postal_code": "14800"
        }
    },
    {
        "title": "Les Bacchanales",
        "address": {
            "address_locality": "247 avenue de Provence",
            "postal_code": "06140"
        }
    },
    {
        "title": "Le Carrousel",
        "address": {
            "address_locality": "14 rue du Pont de Morge",
            "postal_code": "63350"
        }
    },
    {
        "title": "1912",
        "address": {
            "address_locality": "bd de la Cahotte",
            "postal_code": "14360"
        }
    },
    {
        "title": "Ivan Vautier",
        "address": {
            "address_locality": "3 avenue Henry-Chéron",
            "postal_code": "14000"
        }
    },
    {
        "title": "La Villa Madie",
        "address": {
            "address_locality": "av. du Revestel",
            "postal_code": "13260"
        }
    },
    {
        "title": "Yoann Conte",
        "address": {
            "address_locality": "13 Vieille-Route-des-Pensières",
            "postal_code": "74290"
        }
    },
    {
        "title": "Les Terrasses d'Uriage",
        "address": {
            "address_locality": "pl. Déesse-Hygie",
            "postal_code": "38410"
        }
    },
    {
        "title": "La Grignotière",
        "address": {
            "address_locality": "6 Rue Jean Jaures",
            "postal_code": "59590"
        }
    },
    {
        "title": "La Table de Patrick Raingeard",
        "address": {
            "address_locality": "1312 av. Raymond-Poincaré",
            "postal_code": "06360"
        }
    },
    {
        "title": "Apicius",
        "address": {
            "address_locality": "Marché Saint Pierre 1 étage",
            "postal_code": "63000"
        }
    },
    {
        "title": "Le Clarence",
        "address": {
            "address_locality": "31 Avenue Franklin Delano Roosevelt",
            "postal_code": "75008"
        }
    },
    {
        "title": "L'Amphitryon",
        "address": {
            "address_locality": "chemin de Gramont",
            "postal_code": "31770"
        }
    },
    {
        "title": "Hostellerie de l'Abbaye de la Celle",
        "address": {
            "address_locality": "10 Place Général de Gaulle",
            "postal_code": "83170"
        }
    },
    {
        "title": "Les Terrasses de Lyon",
        "address": {
            "address_locality": "25, montée Saint BArthelémy",
            "postal_code": "69005"
        }
    },
    {
        "title": "Loiseau rive Gauche",
        "address": {
            "address_locality": "5 rue Bourgogne",
            "postal_code": "75007"
        }
    },
    {
        "title": "Ô Flaveurs",
        "address": {
            "address_locality": "Château de Chilly",
            "postal_code": "74140"
        }
    },
    {
        "title": "Aux Pesked",
        "address": {
            "address_locality": "59 Rue du Légué",
            "postal_code": "22000"
        }
    },
    {
        "title": "1131",
        "address": {
            "address_locality": "D 33",
            "postal_code": "21360"
        }
    },
    {
        "title": "Auberge Grand'Maison",
        "address": {
            "address_locality": "1 r. Léon-le-Cerf",
            "postal_code": "22530"
        }
    },
    {
        "title": "Château de Courban",
        "address": {
            "address_locality": "7 rue du Lavoir",
            "postal_code": "21520"
        }
    },
    {
        "title": "Flaveurs",
        "address": {
            "address_locality": "32 Grande-Rue",
            "postal_code": "26000"
        }
    },
    {
        "title": "La Maison d'à Côté",
        "address": {
            "address_locality": "17 rue de Chambord",
            "postal_code": "41350"
        }
    },
    {
        "title": "La Promenade",
        "address": {
            "address_locality": "11 rue du Savoureulx",
            "postal_code": "37350"
        }
    },
    {
        "title": "Frédéric Doucet",
        "address": {
            "address_locality": "2 avenue de la Libération",
            "postal_code": "71120"
        }
    },
    {
        "title": "L'Atelier de Jean-Luc Rabanel",
        "address": {
            "address_locality": "7 r. des Carmes",
            "postal_code": "13200"
        }
    },
    {
        "title": "Il Cortile",
        "address": {
            "address_locality": "11 r. des Franciscains",
            "postal_code": "68100"
        }
    },
    {
        "title": "La Table du 11",
        "address": {
            "address_locality": "8 rue de la chancellerie",
            "postal_code": "78000"
        }
    },
    {
        "title": "Le Farçon",
        "address": {
            "address_locality": "immeuble la Kalinka",
            "postal_code": "73125"
        }
    },
    {
        "title": "Pierre Orsi",
        "address": {
            "address_locality": "Place Kléber",
            "postal_code": "69006"
        }
    },
    {
        "title": "Le Cloître",
        "address": {
            "address_locality": "Le Cloitre",
            "postal_code": "04300"
        }
    },
    {
        "title": "L'Impertinent",
        "address": {
            "address_locality": "5, rue d'Alsace",
            "postal_code": "64200"
        }
    },
    {
        "title": "Lamartine",
        "address": {
            "address_locality": "Route du Tunnel du Chat",
            "postal_code": "73370"
        }
    },
    {
        "title": "JY'S",
        "address": {
            "address_locality": "17 r. de la Poissonnerie",
            "postal_code": "68000"
        }
    },
    {
        "title": "L'Orangerie du Château",
        "address": {
            "address_locality": "1 Avenue du Docteur Jean Laigret",
            "postal_code": "41000"
        }
    },
    {
        "title": "Les Pêcheurs",
        "address": {
            "address_locality": "10 boulevard du Maréchal-Juin",
            "postal_code": "06600"
        }
    },
    {
        "title": "Le Pré Catelan",
        "address": {
            "address_locality": "Route de Suresnes",
            "postal_code": "75016"
        }
    },
    {
        "title": "Aigue Marine",
        "address": {
            "address_locality": "5 r. M. -Berthelot",
            "postal_code": "22220"
        }
    },
    {
        "title": "Domaine des Hauts de Loire",
        "address": {
            "address_locality": "79 rue Gilbert Navard",
            "postal_code": "41150"
        }
    },
    {
        "title": "Agapé",
        "address": {
            "address_locality": "51 rue Jouffroy-d'Abbans",
            "postal_code": "75017"
        }
    },
    {
        "title": "Fanny Rey & Jonathan Wahid",
        "address": {
            "address_locality": "12, boulevard Mirabeau",
            "postal_code": "13210"
        }
    },
    {
        "title": "Les Tablettes de Jean-Louis Nomicos",
        "address": {
            "address_locality": "16 avenue Bugeaud",
            "postal_code": "75116"
        }
    },
    {
        "title": "La Table de Franck Putelat",
        "address": {
            "address_locality": "80 chemin des Anglais",
            "postal_code": "11000"
        }
    },
    {
        "title": "Le 39V",
        "address": {
            "address_locality": "39 Avenue George V",
            "postal_code": "75008"
        }
    },
    {
        "title": "Le Saint-Estève",
        "address": {
            "address_locality": "2250 route cézanne D17",
            "postal_code": "13100"
        }
    },
    {
        "title": "La Bastide St-Antoine",
        "address": {
            "address_locality": "48 av. Henri-Dunant",
            "postal_code": "06130"
        }
    },
    {
        "title": "Auberge de l'Île Barbe",
        "address": {
            "address_locality": "1 Place Notre-Dame",
            "postal_code": "69009"
        }
    },
    {
        "title": "Auberge Tiegezh",
        "address": {
            "address_locality": "7 Place de la Gare",
            "postal_code": "56380"
        }
    },
    {
        "title": "Le Restaurant",
        "address": {
            "address_locality": "13 rue des Beaux-Arts",
            "postal_code": "75006"
        }
    },
    {
        "title": "Kasbür",
        "address": {
            "address_locality": "8 Rue de Dettwiller",
            "postal_code": "67700"
        }
    },
    {
        "title": "Christophe Bacquié",
        "address": {
            "address_locality": "Hotel du Castellet Route des Hauts du Camp",
            "postal_code": "83330"
        }
    },
    {
        "title": "Le Jardin des Remparts",
        "address": {
            "address_locality": "10 rue Hôtel-Dieu",
            "postal_code": "21200"
        }
    },
    {
        "title": "Paul Bocuse",
        "address": {
            "address_locality": "40 Rue de la Plage",
            "postal_code": "69660"
        }
    },
    {
        "title": "Villa René Lalique",
        "address": {
            "address_locality": "18 Rue Bellevue",
            "postal_code": "67290"
        }
    },
    {
        "title": "Le Moulin d'Alotz",
        "address": {
            "address_locality": "chemin Alotz-Errota",
            "postal_code": "64200"
        }
    },
    {
        "title": "Restaurant du Palais Royal",
        "address": {
            "address_locality": "110 Galerie de Valois - Jardin du Palais Royal",
            "postal_code": "75001"
        }
    },
    {
        "title": "Le Pré du Moulin",
        "address": {
            "address_locality": "rte de Ste-Cécile-les-Vignes",
            "postal_code": "84830"
        }
    },
    {
        "title": "Cyril Attrazic",
        "address": {
            "address_locality": "10 rte du Languedoc",
            "postal_code": "48130"
        }
    },
    {
        "title": "Jérôme Nutile - Le Mas de Boudan",
        "address": {
            "address_locality": "351 Chemin du Mas de Boudan",
            "postal_code": "30000"
        }
    },
    {
        "title": "Le Grand Véfour",
        "address": {
            "address_locality": "17 rue de Beaujolais",
            "postal_code": "75001"
        }
    },
    {
        "title": "Le Saison",
        "address": {
            "address_locality": "1 imp. du Vieux-Bourg",
            "postal_code": "35760"
        }
    },
    {
        "title": "Le Petit Hôtel du Grand Large",
        "address": {
            "address_locality": "11 quai St-Ivy",
            "postal_code": "56510"
        }
    },
    {
        "title": "Le Grand Cerf",
        "address": {
            "address_locality": "50 rte Nationale",
            "postal_code": "51500"
        }
    },
    {
        "title": "Le Figuier de St-Esprit",
        "address": {
            "address_locality": "7, Promenade Amiral de Grasse",
            "postal_code": "06600"
        }
    },
    {
        "title": "Le Domaine de la Corniche",
        "address": {
            "address_locality": "5 rte de la Corniche",
            "postal_code": "78270"
        }
    },
    {
        "title": "Mariottat",
        "address": {
            "address_locality": "25 r. L.-Vivent",
            "postal_code": "47000"
        }
    },
    {
        "title": "Le Champ des Lunes",
        "address": {
            "address_locality": "route de Roquefraîche",
            "postal_code": "84360"
        }
    },
    {
        "title": "Le Neuvième Art",
        "address": {
            "address_locality": "173 r. Cuvier",
            "postal_code": "69006"
        }
    },
    {
        "title": "L'Atelier de Joël Robuchon - St-Germain",
        "address": {
            "address_locality": "5 r. de Montalembert",
            "postal_code": "75007"
        }
    },
    {
        "title": "La Marine",
        "address": {
            "address_locality": "3 r. Marie-Lemonnier",
            "postal_code": "85330"
        }
    },
    {
        "title": "La Table de Nans",
        "address": {
            "address_locality": "corniche du Liouquet",
            "postal_code": "13600"
        }
    },
    {
        "title": "La Bonne Auberge",
        "address": {
            "address_locality": "15 r. Nationale",
            "postal_code": "57350"
        }
    },
    {
        "title": "Ed.Em",
        "address": {
            "address_locality": "4 imp. Chenevottes",
            "postal_code": "21190"
        }
    },
    {
        "title": "Auberge du Pont d'Acigné",
        "address": {
            "address_locality": "D392",
            "postal_code": "35530"
        }
    },
    {
        "title": "Kei",
        "address": {
            "address_locality": "5 rue du Coq-Héron",
            "postal_code": "75001"
        }
    },
    {
        "title": "Alliance",
        "address": {
            "address_locality": "5 Rue de Poissy",
            "postal_code": "75005"
        }
    },
    {
        "title": "Château de Mercuès",
        "address": {
            "address_locality": "Route du Château",
            "postal_code": "46090"
        }
    },
    {
        "title": "Hervé Busset",
        "address": {
            "address_locality": "D901",
            "postal_code": "12320"
        }
    },
    {
        "title": "L'Orangerie",
        "address": {
            "address_locality": "31 Avenue George-V",
            "postal_code": "75008"
        }
    },
    {
        "title": "Henri et Joseph",
        "address": {
            "address_locality": "4 r. Léo-le-Bourgo",
            "postal_code": "56100"
        }
    },
    {
        "title": "Château de la Treyne",
        "address": {
            "address_locality": "",
            "postal_code": "46200"
        }
    },
    {
        "title": "Le Cap",
        "address": {
            "address_locality": "71 Boulevard du Général-de-Gaulle",
            "postal_code": "06230"
        }
    },
    {
        "title": "Le Gourmet de Sèze",
        "address": {
            "address_locality": "125 Rue de Sèze",
            "postal_code": "69006"
        }
    },
    {
        "title": "La Nouvelle Auberge",
        "address": {
            "address_locality": "9 route Nationale",
            "postal_code": "68230"
        }
    },
    {
        "title": "Stéphane Tournié - Les Jardins de l'Opéra",
        "address": {
            "address_locality": "1 place du Capitole",
            "postal_code": "31000"
        }
    },
    {
        "title": "Helen",
        "address": {
            "address_locality": "3 r.Berryer",
            "postal_code": "75008"
        }
    },
    {
        "title": "L'Aubergade",
        "address": {
            "address_locality": "78 rte Nationale",
            "postal_code": "80480"
        }
    },
    {
        "title": "Auberge à la Bonne Idée",
        "address": {
            "address_locality": "3 rue des Meuniers",
            "postal_code": "60350"
        }
    },
    {
        "title": "David Toutain",
        "address": {
            "address_locality": "29 r. Surcouf",
            "postal_code": "75007"
        }
    },
    {
        "title": "Ithurria",
        "address": {
            "address_locality": "pl. du Fronton",
            "postal_code": "64250"
        }
    },
    {
        "title": "Aux Anges",
        "address": {
            "address_locality": "6 Place Georges Clemenceau",
            "postal_code": "42300"
        }
    },
    {
        "title": "La Table du Gourmet",
        "address": {
            "address_locality": "5 rue 1ère Armée",
            "postal_code": "68340"
        }
    },
    {
        "title": "L'Épuisette",
        "address": {
            "address_locality": "158 Vallon-des-Auffes",
            "postal_code": "13007"
        }
    },
    {
        "title": "Emporio Armani Ristorante",
        "address": {
            "address_locality": "149 Boulevard Saint-Germain",
            "postal_code": "75006"
        }
    },
    {
        "title": "L'Aparté",
        "address": {
            "address_locality": "21 Rue de l’Europe",
            "postal_code": "31850"
        }
    },
    {
        "title": "La Gloire",
        "address": {
            "address_locality": "74 av. du Gén.-de-Gaulle",
            "postal_code": "45200"
        }
    },
    {
        "title": "Tour d'Argent",
        "address": {
            "address_locality": "15 quai de la Tournelle",
            "postal_code": "75005"
        }
    },
    {
        "title": "L'Étang du Moulin",
        "address": {
            "address_locality": "5 chemin de l'Etang du Moulin",
            "postal_code": "25210"
        }
    },
    {
        "title": "La Coquerie",
        "address": {
            "address_locality": "1 chemin du Cimetière-Marin",
            "postal_code": "34200"
        }
    },
    {
        "title": "Le Colombier",
        "address": {
            "address_locality": "r. Loucheur",
            "postal_code": "76550"
        }
    },
    {
        "title": "Domaine de Clairefontaine",
        "address": {
            "address_locality": "chemin des Fontanettes",
            "postal_code": "38121"
        }
    },
    {
        "title": "Le Camélia",
        "address": {
            "address_locality": "7 quai Georges Clemenceau",
            "postal_code": "78380"
        }
    },
    {
        "title": "Le Favre d'Anne",
        "address": {
            "address_locality": "21 bd du Mar.-Foch",
            "postal_code": "49000"
        }
    },
    {
        "title": "Le Brittany",
        "address": {
            "address_locality": "bd Ste-Barbe",
            "postal_code": "29681"
        }
    },
    {
        "title": "La Table d'Eugène",
        "address": {
            "address_locality": "18 r. Eugène-Sue",
            "postal_code": "75018"
        }
    },
    {
        "title": "Le Moulin de l'Abbaye",
        "address": {
            "address_locality": "1 avenue Pierre de Bourdeilles",
            "postal_code": "24310"
        }
    },
    {
        "title": "Au Crocodile",
        "address": {
            "address_locality": "10 rue de L'Outre",
            "postal_code": "67000"
        }
    },
    {
        "title": "Le Jasmin",
        "address": {
            "address_locality": "Lieu-dit Lalande",
            "postal_code": "47140"
        }
    },
    {
        "title": "Château Cordeillan-Bages",
        "address": {
            "address_locality": "route des chateaux",
            "postal_code": "33250"
        }
    },
    {
        "title": "Auberge des Templiers",
        "address": {
            "address_locality": "D2007",
            "postal_code": "45290"
        }
    },
    {
        "title": "Brikéténia",
        "address": {
            "address_locality": "142 r. de l'Église",
            "postal_code": "64210"
        }
    },
    {
        "title": "Le Millénaire",
        "address": {
            "address_locality": "4 rue Bertin",
            "postal_code": "51100"
        }
    },
    {
        "title": "Le Chantecler",
        "address": {
            "address_locality": "37 Promenade des Anglais",
            "postal_code": "06000"
        }
    },
    {
        "title": "Domaine d'Auriac",
        "address": {
            "address_locality": "Route de Saint-Hilaire",
            "postal_code": "11000"
        }
    },
    {
        "title": "Les Fresques",
        "address": {
            "address_locality": "D18",
            "postal_code": "24240"
        }
    },
    {
        "title": "L'Amphitryon",
        "address": {
            "address_locality": "127 r. du Col. -Müller",
            "postal_code": "56100"
        }
    },
    {
        "title": "La Maison dans le Parc",
        "address": {
            "address_locality": "3 r. Ste-Catherine",
            "postal_code": "54000"
        }
    },
    {
        "title": "Cobéa",
        "address": {
            "address_locality": "11 r. Raymond Losserand",
            "postal_code": "75014"
        }
    },
    {
        "title": "Sylvestre",
        "address": {
            "address_locality": "79 rue St-Dominique",
            "postal_code": "75007"
        }
    },
    {
        "title": "Auberge Frankenbourg",
        "address": {
            "address_locality": "13 r. Gén. de Gaulle",
            "postal_code": "67730"
        }
    },
    {
        "title": "Flocons de Sel",
        "address": {
            "address_locality": "1775 rte du Leutaz",
            "postal_code": "74120"
        }
    },
    {
        "title": "La Coopérative",
        "address": {
            "address_locality": "2A Route de Caladroy",
            "postal_code": "66720"
        }
    },
    {
        "title": "Le Quincangrogne",
        "address": {
            "address_locality": "7 Rue de l'Abreuvoir",
            "postal_code": "77400"
        }
    },
    {
        "title": "L'Auberge Basque",
        "address": {
            "address_locality": "quartier Helbarron",
            "postal_code": "64310"
        }
    },
    {
        "title": "Le Fanal",
        "address": {
            "address_locality": "17 Avenue du Fontaulé",
            "postal_code": "66650"
        }
    },
    {
        "title": "Alain Ducasse au Plaza Athénée",
        "address": {
            "address_locality": "25 avenue Montaigne",
            "postal_code": "75008"
        }
    },
    {
        "title": "La Réserve Rimbaud",
        "address": {
            "address_locality": "820 Avenue de Saint-Maur",
            "postal_code": "34000"
        }
    },
    {
        "title": "La Madeleine",
        "address": {
            "address_locality": "1 Rue Alsace-Lorraine",
            "postal_code": "89100"
        }
    },
    {
        "title": "Le Prieuré",
        "address": {
            "address_locality": "r. de la Mairie",
            "postal_code": "42820"
        }
    },
    {
        "title": "L'Atelier de Joël Robuchon - Étoile",
        "address": {
            "address_locality": "133 av. des Champs-Élysées",
            "postal_code": "75008"
        }
    },
    {
        "title": "Maison Prévôt",
        "address": {
            "address_locality": "353 av. de Verdun",
            "postal_code": "84300"
        }
    },
    {
        "title": "Les Trois Soleils de Montal",
        "address": {
            "address_locality": "St-Jean-Lespinasse",
            "postal_code": "46400"
        }
    },
    {
        "title": "Les Morainières",
        "address": {
            "address_locality": "route de Marétel",
            "postal_code": "73170"
        }
    },
    {
        "title": "Flaveur",
        "address": {
            "address_locality": "25 Rue Gubernatis",
            "postal_code": "06000"
        }
    },
    {
        "title": "Alléno Paris au Pavillon Ledoyen",
        "address": {
            "address_locality": "8 avenue Dutuit",
            "postal_code": "75008"
        }
    },
    {
        "title": "L'Auberge de la Pomme",
        "address": {
            "address_locality": "44 rue de l' eure",
            "postal_code": "27340"
        }
    },
    {
        "title": "Maison Rostang",
        "address": {
            "address_locality": "20 rue Rennequin",
            "postal_code": "75017"
        }
    },
    {
        "title": "Le Baudelaire",
        "address": {
            "address_locality": "6-8 rue Duphot",
            "postal_code": "75001"
        }
    },
    {
        "title": "Quinsou",
        "address": {
            "address_locality": "33 r. de l'Abbé-Grégoire",
            "postal_code": "75006"
        }
    },
    {
        "title": "La Table de la Ferme",
        "address": {
            "address_locality": "Vallée de l'Ortolo",
            "postal_code": "20100"
        }
    },
    {
        "title": "La Bastide de Capelongue",
        "address": {
            "address_locality": "Chemin des Cabanes",
            "postal_code": "84480"
        }
    },
    {
        "title": "La Tour",
        "address": {
            "address_locality": "31 Nouvelle-Place",
            "postal_code": "18300"
        }
    },
    {
        "title": "Le Montgomerie",
        "address": {
            "address_locality": "356 rte de l'Altiport",
            "postal_code": "73120"
        }
    },
    {
        "title": "Le Pavillon des Boulevards",
        "address": {
            "address_locality": "120 r. Croix-de-Seguey",
            "postal_code": "33000"
        }
    },
    {
        "title": "Auberge du Bon Laboureur",
        "address": {
            "address_locality": "6 r. Dr Bretonneau",
            "postal_code": "37150"
        }
    },
    {
        "title": "Ô Saveurs",
        "address": {
            "address_locality": "8 place Ormeaux au village",
            "postal_code": "31180"
        }
    },
    {
        "title": "La Table de La Butte",
        "address": {
            "address_locality": "10 rue de la Mer",
            "postal_code": "29260"
        }
    },
    {
        "title": "Initial",
        "address": {
            "address_locality": "24 Rue Saint-Manvieu",
            "postal_code": "14000"
        }
    },
    {
        "title": "La Balette",
        "address": {
            "address_locality": "rte de Port-Vendres",
            "postal_code": "66190"
        }
    },
    {
        "title": "L'Almandin",
        "address": {
            "address_locality": "Boulevard de l'Almandin",
            "postal_code": "66750"
        }
    },
    {
        "title": "JAN",
        "address": {
            "address_locality": "12 Rue Lascaris",
            "postal_code": "06000"
        }
    },
    {
        "title": "La Marande",
        "address": {
            "address_locality": "lieu-dit Mirande",
            "postal_code": "71260"
        }
    },
    {
        "title": "Dan B. - La Table de Ventabren",
        "address": {
            "address_locality": "r. F. -Mistral",
            "postal_code": "13122"
        }
    },
    {
        "title": "Miraflores",
        "address": {
            "address_locality": "60 r. Garibaldi",
            "postal_code": "69006"
        }
    },
    {
        "title": "Jean Sulpice",
        "address": {
            "address_locality": "303 rte du Port",
            "postal_code": "74290"
        }
    },
    {
        "title": "Pertinence",
        "address": {
            "address_locality": "29 r. de l'Exposition",
            "postal_code": "75007"
        }
    },
    {
        "title": "Akrame",
        "address": {
            "address_locality": "7 r. Tronchet",
            "postal_code": "75008"
        }
    },
    {
        "title": "Pierre Reboul",
        "address": {
            "address_locality": "260 r. Guillaume-du-Vair",
            "postal_code": "13546"
        }
    },
    {
        "title": "Ken Kawasaki",
        "address": {
            "address_locality": "15 r. Caulaincourt",
            "postal_code": "75018"
        }
    },
    {
        "title": "Le Skiff Club",
        "address": {
            "address_locality": "1 av. Louis-Gaume",
            "postal_code": "33260"
        }
    },
    {
        "title": "Jérôme Feck",
        "address": {
            "address_locality": "19 pl. Mgr-Tissier",
            "postal_code": "51000"
        }
    },
    {
        "title": "Le Chateaubriand",
        "address": {
            "address_locality": "129 av. Parmentier",
            "postal_code": "75011"
        }
    },
    {
        "title": "Le Grand Cap",
        "address": {
            "address_locality": "chemin du Phare",
            "postal_code": "11370"
        }
    },
    {
        "title": "Divellec",
        "address": {
            "address_locality": "18 r. Fabert",
            "postal_code": "75007"
        }
    },
    {
        "title": "Jean Chauvel",
        "address": {
            "address_locality": "33 av. Général-Leclerc",
            "postal_code": "92100"
        }
    },
    {
        "title": "Sushi B",
        "address": {
            "address_locality": "5 r. Rameau",
            "postal_code": "75002"
        }
    },
    {
        "title": "Montée",
        "address": {
            "address_locality": "9 r. Léopold-Robert",
            "postal_code": "75014"
        }
    },
    {
        "title": "La Merise",
        "address": {
            "address_locality": "7 r. d'Eschbach",
            "postal_code": "67580"
        }
    },
    {
        "title": "L'Océan",
        "address": {
            "address_locality": "43 bd Thiers",
            "postal_code": "64500"
        }
    },
    {
        "title": "Étincelles - La Gentilhommière",
        "address": {
            "address_locality": "",
            "postal_code": "24440"
        }
    },
    {
        "title": "Auberge du Dun",
        "address": {
            "address_locality": "3 rte de Dieppe",
            "postal_code": "76740"
        }
    },
    {
        "title": "Azimut",
        "address": {
            "address_locality": "273 r. de la Madelon",
            "postal_code": "73120"
        }
    },
    {
        "title": "Le Grand Restaurant - Jean-François Piège",
        "address": {
            "address_locality": "7 r. d'Aguesseau",
            "postal_code": "75008"
        }
    },
    {
        "title": "Rodolphe",
        "address": {
            "address_locality": "35 r. Percière",
            "postal_code": "76000"
        }
    },
    {
        "title": "Le Pousse-Pied",
        "address": {
            "address_locality": "84 bd des Vendéens",
            "postal_code": "85360"
        }
    },
    {
        "title": "Garance",
        "address": {
            "address_locality": "34 r. St-Dominique",
            "postal_code": "75007"
        }
    },
    {
        "title": "Garopapilles",
        "address": {
            "address_locality": "62 r. Abbé-de-L'Epée",
            "postal_code": "33000"
        }
    },
    {
        "title": "L'Émulsion",
        "address": {
            "address_locality": "57 rte de Lyon",
            "postal_code": "38080"
        }
    },
    {
        "title": "La Marine",
        "address": {
            "address_locality": "11 r. de Paris",
            "postal_code": "50270"
        }
    },
    {
        "title": "Auberge du Paradis",
        "address": {
            "address_locality": "Le Plâtre-Durand",
            "postal_code": "71570"
        }
    },
    {
        "title": "Racine",
        "address": {
            "address_locality": "6 pl. Godinot",
            "postal_code": "51100"
        }
    },
    {
        "title": "Le Marcq",
        "address": {
            "address_locality": "944 av. de la République",
            "postal_code": "59700"
        }
    },
    {
        "title": "Le Pavillon",
        "address": {
            "address_locality": "av. du Verger",
            "postal_code": "62520"
        }
    },
    {
        "title": "Palégrié",
        "address": {
            "address_locality": "Les Ritons",
            "postal_code": "38250"
        }
    },
    {
        "title": "Pèir",
        "address": {
            "address_locality": "r. de la Combe",
            "postal_code": "84220"
        }
    },
    {
        "title": "U Santa Marina",
        "address": {
            "address_locality": "Marina di Santa Giulia",
            "postal_code": "20137"
        }
    },
    {
        "title": "Château de Vauchoux",
        "address": {
            "address_locality": "",
            "postal_code": "70170"
        }
    },
    {
        "title": "La Table by La Villa",
        "address": {
            "address_locality": "chemin de Notre-Dame-de-la-Serra",
            "postal_code": "20260"
        }
    },
    {
        "title": "Restaurant H",
        "address": {
            "address_locality": "13 r. Jean-Beausire",
            "postal_code": "75004"
        }
    },
    {
        "title": "La Fourchette du Printemps",
        "address": {
            "address_locality": "30 r. du Printemps",
            "postal_code": "75017"
        }
    },
    {
        "title": "À Contre Sens",
        "address": {
            "address_locality": "8-10 r. des Croisiers",
            "postal_code": "14000"
        }
    },
    {
        "title": "La Roya",
        "address": {
            "address_locality": "plage de la Roya",
            "postal_code": "20217"
        }
    },
    {
        "title": "Lou Cigalon-Maison Martin",
        "address": {
            "address_locality": "6 bd Carnot",
            "postal_code": "06560"
        }
    },
    {
        "title": "Auberge Le Prieuré",
        "address": {
            "address_locality": "4 Grand'Rue",
            "postal_code": "47310"
        }
    },
    {
        "title": "Château Blanchard",
        "address": {
            "address_locality": "36 rte de St-Galmier",
            "postal_code": "42140"
        }
    },
    {
        "title": "La Robe",
        "address": {
            "address_locality": "3 pl. Reveillère-Lepeaux",
            "postal_code": "85600"
        }
    },
    {
        "title": "L'Alchémille",
        "address": {
            "address_locality": "53 rte de Lapoutroie",
            "postal_code": "68240"
        }
    },
    {
        "title": "L'Éveil des Sens",
        "address": {
            "address_locality": "429 bd Paul-Lintier",
            "postal_code": "53100"
        }
    },
    {
        "title": "ES",
        "address": {
            "address_locality": "91 r. de Grenelle",
            "postal_code": "75007"
        }
    },
    {
        "title": "Le Pêché Gourmand",
        "address": {
            "address_locality": "2 rte de Gap",
            "postal_code": "05100"
        }
    },
    {
        "title": "Val d'Auge",
        "address": {
            "address_locality": "805 av. du Gén.-de-Gaulle",
            "postal_code": "59910"
        }
    },
    {
        "title": "Le Moulin des Quatre Saisons",
        "address": {
            "address_locality": "r. Gallieni",
            "postal_code": "72200"
        }
    },
    {
        "title": "Haut Bonheur de la Table",
        "address": {
            "address_locality": "18 Grand-Place",
            "postal_code": "59670"
        }
    },
    {
        "title": "Le Sérac",
        "address": {
            "address_locality": "22 r. de la Comtesse",
            "postal_code": "74170"
        }
    },
    {
        "title": "Transparence \"La Table de Patrick Fréchin\"",
        "address": {
            "address_locality": "28 r. Stanislas",
            "postal_code": "54000"
        }
    },
    {
        "title": "Le Prieuré",
        "address": {
            "address_locality": "7 pl. du Chapitre",
            "postal_code": "30400"
        }
    },
    {
        "title": "Le Clos St-Pierre",
        "address": {
            "address_locality": "pl. de la Mairie",
            "postal_code": "06650"
        }
    },
    {
        "title": "La Ville Blanche",
        "address": {
            "address_locality": "La Ville Blanche",
            "postal_code": "22300"
        }
    },
    {
        "title": "Table - Bruno Verjus",
        "address": {
            "address_locality": "3 r. de Prague",
            "postal_code": "75012"
        }
    },
    {
        "title": "L'Auberge de Bagatelle",
        "address": {
            "address_locality": "489 av. Bollée",
            "postal_code": "72000"
        }
    },
    {
        "title": "Ima",
        "address": {
            "address_locality": "20 bd de la Tour-d'Auvergne",
            "postal_code": "35000"
        }
    },
    {
        "title": "Comice",
        "address": {
            "address_locality": "31 av. de Versailles",
            "postal_code": "75016"
        }
    },
    {
        "title": "La Table d'Hôtes - Le Quatrième Mur",
        "address": {
            "address_locality": "2 pl. de la Comédie",
            "postal_code": "33000"
        }
    },
    {
        "title": "Mickaël Féval",
        "address": {
            "address_locality": "11 Petite-Rue-St-Jean",
            "postal_code": "13100"
        }
    },
    {
        "title": "L'Hysope",
        "address": {
            "address_locality": "25 r. de l'Aurore",
            "postal_code": "17220"
        }
    },
    {
        "title": "Clovis",
        "address": {
            "address_locality": "21 Grand-Rue",
            "postal_code": "06140"
        }
    },
    {
        "title": "Allium",
        "address": {
            "address_locality": "88 bd de Créac'h-Gwen",
            "postal_code": "29000"
        }
    },
    {
        "title": "Auberge St-Walfrid",
        "address": {
            "address_locality": "58 r. de Grosbliederstroff",
            "postal_code": "57200"
        }
    },
    {
        "title": "Les Genêts",
        "address": {
            "address_locality": "21 bis Rue de l'Océan",
            "postal_code": "85470"
        }
    },
    {
        "title": "Étude",
        "address": {
            "address_locality": "14 r. Bouquet-de-Longchamp",
            "postal_code": "75016"
        }
    },
    {
        "title": "Pages",
        "address": {
            "address_locality": "4 r. Auguste-Vacquerie",
            "postal_code": "75016"
        }
    },
    {
        "title": "Au 14 Février",
        "address": {
            "address_locality": "Le Plâtre-Durand",
            "postal_code": "71570"
        }
    },
    {
        "title": "Saturne",
        "address": {
            "address_locality": "17 r. N.-D.-des-Victoires",
            "postal_code": "75002"
        }
    },
    {
        "title": "L'Aromate",
        "address": {
            "address_locality": "2 r. Gustave Deloye",
            "postal_code": "06000"
        }
    },
    {
        "title": "Le St-Martin",
        "address": {
            "address_locality": "1 r. du Gén.-Leclerc",
            "postal_code": "25200"
        }
    },
    {
        "title": "Maison Crouzil et Hôtel L'Écrin",
        "address": {
            "address_locality": "20 les Quais",
            "postal_code": "22130"
        }
    },
    {
        "title": "Roscanvec",
        "address": {
            "address_locality": "17 r. des Halles",
            "postal_code": "56000"
        }
    },
    {
        "title": "La Vieille Tour",
        "address": {
            "address_locality": "75 r. de la Tour",
            "postal_code": "22190"
        }
    },
    {
        "title": "L'Orée de la Forêt",
        "address": {
            "address_locality": "255 r. de la Forêt",
            "postal_code": "60600"
        }
    },
    {
        "title": "Le Pot d'Étain",
        "address": {
            "address_locality": "4 av. de la République",
            "postal_code": "90400"
        }
    },
    {
        "title": "La Table de la Bergerie",
        "address": {
            "address_locality": "La Bergerie",
            "postal_code": "49380"
        }
    },
    {
        "title": "Le Château de Sable",
        "address": {
            "address_locality": "38 r. de l'Europe",
            "postal_code": "29840"
        }
    },
    {
        "title": "Le Mas du Langoustier",
        "address": {
            "address_locality": "",
            "postal_code": "83400"
        }
    },
    {
        "title": "Laurent",
        "address": {
            "address_locality": "41 av. Gabriel",
            "postal_code": "75008"
        }
    },
    {
        "title": "Château de Codignat",
        "address": {
            "address_locality": "Bort l'Etang",
            "postal_code": "63190"
        }
    },
    {
        "title": "Le Cerf",
        "address": {
            "address_locality": "30 r. du Gén.-de-Gaulle",
            "postal_code": "67520"
        }
    },
    {
        "title": "Vieux Pont",
        "address": {
            "address_locality": "",
            "postal_code": "12390"
        }
    },
    {
        "title": "Au Déjeuner de Sousceyrac",
        "address": {
            "address_locality": "r. Pierre-Benoit",
            "postal_code": "46190"
        }
    },
    {
        "title": "Le Lido",
        "address": {
            "address_locality": "42 av. Napoléon-III",
            "postal_code": "20110"
        }
    },
    {
        "title": "L'Aquarelle",
        "address": {
            "address_locality": "71 A rte du Montil",
            "postal_code": "17920"
        }
    },
    {
        "title": "Le Carré d'Alethius",
        "address": {
            "address_locality": "4 r. Paul-Bertois",
            "postal_code": "07800"
        }
    },
    {
        "title": "Château d'Adoménil",
        "address": {
            "address_locality": "",
            "postal_code": "54300"
        }
    },
    {
        "title": "Alcyone",
        "address": {
            "address_locality": "1 Place Daviel",
            "postal_code": "13002"
        }
    },
    {
        "title": "La Rotonde",
        "address": {
            "address_locality": "200 avenue du Casino",
            "postal_code": "69890"
        }
    },
    {
        "title": "Antoine",
        "address": {
            "address_locality": "10 av. de New-York",
            "postal_code": "75116"
        }
    },
    {
        "title": "Les Bas-Rupts",
        "address": {
            "address_locality": "181 rte de la Bresse",
            "postal_code": "88400"
        }
    },
    {
        "title": "Faventia",
        "address": {
            "address_locality": "3100 route de Bagnols-en-Forêt",
            "postal_code": "83440"
        }
    },
    {
        "title": "Le Pressoir",
        "address": {
            "address_locality": "7 r. de l'Hôpital",
            "postal_code": "56890"
        }
    },
    {
        "title": "Takao Takano",
        "address": {
            "address_locality": "33 Rue Malesherbes",
            "postal_code": "69006"
        }
    },
    {
        "title": "Relais de la Poste",
        "address": {
            "address_locality": "21 rue du Gén. -de-Gaulle",
            "postal_code": "67610"
        }
    },
    {
        "title": "L'Atelier du Peintre",
        "address": {
            "address_locality": "1 Rue Schongauer",
            "postal_code": "68000"
        }
    },
    {
        "title": "Mirazur",
        "address": {
            "address_locality": "30, Avenue Aristide Briand",
            "postal_code": "06500"
        }
    },
    {
        "title": "Hexagone",
        "address": {
            "address_locality": "85 Avenue Kléber",
            "postal_code": "75016"
        }
    },
    {
        "title": "Auberge de la Mine",
        "address": {
            "address_locality": "le Gué-Plat",
            "postal_code": "61450"
        }
    },
    {
        "title": "La Palme d'Or",
        "address": {
            "address_locality": "73 Boulevard de la Croisette",
            "postal_code": "06400"
        }
    },
    {
        "title": "Michel Chabran - La Grande Table",
        "address": {
            "address_locality": "29 Avenue du Quarante-Cinquième Parallèle",
            "postal_code": "26600"
        }
    },
    {
        "title": "Hélène Darroze",
        "address": {
            "address_locality": "4 rue d'Assas",
            "postal_code": "75006"
        }
    },
    {
        "title": "64° Le Restaurant",
        "address": {
            "address_locality": "9-13 Rue du Général de Gaulle",
            "postal_code": "68240"
        }
    },
    {
        "title": "L'Essentiel",
        "address": {
            "address_locality": "8 r. de la Clarté",
            "postal_code": "24000"
        }
    },
    {
        "title": "Le Lièvre Gourmand",
        "address": {
            "address_locality": "28 quai du Châtelet",
            "postal_code": "45000"
        }
    },
    {
        "title": "Auberge du Cellier",
        "address": {
            "address_locality": "1 Rue de Sainte-Eugénie",
            "postal_code": "66720"
        }
    },
    {
        "title": "Hostellerie du Rosenmeer",
        "address": {
            "address_locality": "45 avenue de la Gare",
            "postal_code": "67560"
        }
    },
    {
        "title": "Le Kléber",
        "address": {
            "address_locality": "6 r. A. -Dumont",
            "postal_code": "26400"
        }
    },
    {
        "title": "Le Bistrot de Lagarde",
        "address": {
            "address_locality": "rte d'Apt",
            "postal_code": "84400"
        }
    },
    {
        "title": "Hostellerie de Plaisance",
        "address": {
            "address_locality": "5 place du Clocher",
            "postal_code": "33330"
        }
    },
    {
        "title": "Paloma",
        "address": {
            "address_locality": "47 Avenue du Moulin de la Croix",
            "postal_code": "06250"
        }
    },
    {
        "title": "Hostellerie de Levernois",
        "address": {
            "address_locality": "15 r. du Golf",
            "postal_code": "21200"
        }
    },
    {
        "title": "Le Sénéchal",
        "address": {
            "address_locality": "Sauveterre de Rouergue",
            "postal_code": "12800"
        }
    },
    {
        "title": "Manoir de la Boulaie",
        "address": {
            "address_locality": "33 rue Chapelle St-Martin",
            "postal_code": "44115"
        }
    },
    {
        "title": "Louison",
        "address": {
            "address_locality": "2750 route de la cride",
            "postal_code": "13610"
        }
    },
    {
        "title": "Mathieu Pacaud - Histoires",
        "address": {
            "address_locality": "85 Avenue Kléber",
            "postal_code": "75016"
        }
    },
    {
        "title": "La Bonne Étape",
        "address": {
            "address_locality": "chemin du lac",
            "postal_code": "04160"
        }
    },
    {
        "title": "Numéro 3",
        "address": {
            "address_locality": "3 rue du Général de Gaulle",
            "postal_code": "78490"
        }
    },
    {
        "title": "Dyades au Domaine des Étangs",
        "address": {
            "address_locality": "Les Etangs",
            "postal_code": "16310"
        }
    },
    {
        "title": "Le Manoir du Lys",
        "address": {
            "address_locality": "D235",
            "postal_code": "61140"
        }
    },
    {
        "title": "En Marge",
        "address": {
            "address_locality": "1204 rte de la Croix-Falgarde",
            "postal_code": "31320"
        }
    },
    {
        "title": "Les Terraillers",
        "address": {
            "address_locality": "11 Route Chemin-Neuf",
            "postal_code": "06410"
        }
    },
    {
        "title": "Jérémy Galvan",
        "address": {
            "address_locality": "Rue du Boeuf",
            "postal_code": "69005"
        }
    },
    {
        "title": "La Mare aux Oiseaux",
        "address": {
            "address_locality": "223 RUE DU CHEF DE L'ILE Fedrun",
            "postal_code": "44720"
        }
    },
    {
        "title": "Jean-Luc Tartarin",
        "address": {
            "address_locality": "Square Saint-Roch",
            "postal_code": "76600"
        }
    },
    {
        "title": "Le Raisin",
        "address": {
            "address_locality": "2 pl. M. -Poisat",
            "postal_code": "01190"
        }
    },
    {
        "title": "Le Grand Bleu",
        "address": {
            "address_locality": "43 av. de la Gare",
            "postal_code": "24200"
        }
    },
    {
        "title": "Mère Brazier",
        "address": {
            "address_locality": "12 rue Royale",
            "postal_code": "69001"
        }
    },
    {
        "title": "Le Carmin",
        "address": {
            "address_locality": "4B Place Carnot",
            "postal_code": "21200"
        }
    },
    {
        "title": "Baumanière 1850",
        "address": {
            "address_locality": "rte de Bellecôte",
            "postal_code": "73120"
        }
    },
    {
        "title": "La Chaumière",
        "address": {
            "address_locality": "346 av. du Mar. -Juin",
            "postal_code": "39100"
        }
    },
    {
        "title": "La Closerie",
        "address": {
            "address_locality": "bd des Platanes",
            "postal_code": "84240"
        }
    },
    {
        "title": "Table des Frères Ibarboure",
        "address": {
            "address_locality": "chemin Ttalienea",
            "postal_code": "64210"
        }
    },
    {
        "title": "L'Esquisse",
        "address": {
            "address_locality": "21 rue Royale",
            "postal_code": "74000"
        }
    }
]