[
    {
        "title": "Agapé",
        "address": {
            "address_locality": "51 Rue Jouffroy-d'Abbans",
            "postal_code": "75017"
        }
    },
    {
        "title": "Le Jardin des Remparts",
        "address": {
            "address_locality": "10 rue Hôtel-Dieu",
            "postal_code": "21200"
        }
    },
    {
        "title": "Frédéric Doucet",
        "address": {
            "address_locality": "2 avenue de la Libération",
            "postal_code": "71120"
        }
    },
    {
        "title": "Le Pré Catelan",
        "address": {
            "address_locality": "Route de Suresnes",
            "postal_code": "75016"
        }
    },
    {
        "title": "Aigue Marine",
        "address": {
            "address_locality": "5 r. M. -Berthelot",
            "postal_code": "22220"
        }
    },
    {
        "title": "Le 39V",
        "address": {
            "address_locality": "39 Avenue George V",
            "postal_code": "75008"
        }
    },
    {
        "title": "Le Saint-Estève",
        "address": {
            "address_locality": "2250 route cézanne D17",
            "postal_code": "13100"
        }
    },
    {
        "title": "JY'S",
        "address": {
            "address_locality": "17 r. de la Poissonnerie",
            "postal_code": "68000"
        }
    },
    {
        "title": "Restaurant du Palais Royal",
        "address": {
            "address_locality": "110 Galerie de Valois - Jardin du Palais Royal",
            "postal_code": "75001"
        }
    },
    {
        "title": "Auberge de l'Île Barbe",
        "address": {
            "address_locality": "1 Place Notre-Dame",
            "postal_code": "69009"
        }
    },
    {
        "title": "Les Pêcheurs",
        "address": {
            "address_locality": "10 boulevard du Maréchal-Juin",
            "postal_code": "06600"
        }
    },
    {
        "title": "La Table de Franck Putelat",
        "address": {
            "address_locality": "80 chemin des Anglais",
            "postal_code": "11000"
        }
    },
    {
        "title": "Le Restaurant",
        "address": {
            "address_locality": "13 rue des Beaux-Arts",
            "postal_code": "75006"
        }
    },
    {
        "title": "Christophe Bacquié",
        "address": {
            "address_locality": "Hotel du Castellet Route des Hauts du Camp",
            "postal_code": "83330"
        }
    },
    {
        "title": "L'Orangerie du Château",
        "address": {
            "address_locality": "1 Avenue du Docteur Jean Laigret",
            "postal_code": "41000"
        }
    },
    {
        "title": "Fanny Rey & Jonathan Wahid",
        "address": {
            "address_locality": "12, boulevard Mirabeau",
            "postal_code": "13210"
        }
    },
    {
        "title": "Paul Bocuse",
        "address": {
            "address_locality": "40 Quai de la Plage",
            "postal_code": "69660"
        }
    },
    {
        "title": "Les Tablettes de Jean-Louis Nomicos",
        "address": {
            "address_locality": "16 Avenue Bugeaud",
            "postal_code": "75016"
        }
    },
    {
        "title": "La Liégeoise",
        "address": {
            "address_locality": "digue de mer",
            "postal_code": "62930"
        }
    },
    {
        "title": "Numéro 3",
        "address": {
            "address_locality": "3 rue du Général de Gaulle",
            "postal_code": "78490"
        }
    },
    {
        "title": "Paloma",
        "address": {
            "address_locality": "47 Avenue du Moulin de la Croix",
            "postal_code": "06250"
        }
    },
    {
        "title": "L'Almandin",
        "address": {
            "address_locality": "Boulevard de l'Almandin",
            "postal_code": "66750"
        }
    },
    {
        "title": "La Tour des Vents",
        "address": {
            "address_locality": "Le Moulin de Malfourat",
            "postal_code": "24240"
        }
    },
    {
        "title": "Patrick Jeffroy",
        "address": {
            "address_locality": "20 rue du Kelenn",
            "postal_code": "29660"
        }
    },
    {
        "title": "Mère Brazier",
        "address": {
            "address_locality": "12 rue Royale",
            "postal_code": "69001"
        }
    },
    {
        "title": "Le Violon d'Ingres",
        "address": {
            "address_locality": "135 Rue Saint-Dominique",
            "postal_code": "75007"
        }
    },
    {
        "title": "Le Moulin du Roc",
        "address": {
            "address_locality": "Avenue Eugène Le Roy",
            "postal_code": "24530"
        }
    },
    {
        "title": "Mathieu Pacaud - Histoires",
        "address": {
            "address_locality": "85 Avenue Kléber",
            "postal_code": "75016"
        }
    },
    {
        "title": "Têtedoie",
        "address": {
            "address_locality": "4 Rue Professeur Pierre Marion",
            "postal_code": "69005"
        }
    },
    {
        "title": "Le Cloître",
        "address": {
            "address_locality": "Le Cloitre",
            "postal_code": "04300"
        }
    },
    {
        "title": "Le Chiberta",
        "address": {
            "address_locality": "3 Rue Arsène Houssaye",
            "postal_code": "75008"
        }
    },
    {
        "title": "Le Petit Nice",
        "address": {
            "address_locality": "Anse de Maldormé - Corniche J. F. Kennedy",
            "postal_code": "13007"
        }
    },
    {
        "title": "Hostellerie de l'Abbaye de la Celle",
        "address": {
            "address_locality": "10 Place Général de Gaulle",
            "postal_code": "83170"
        }
    },
    {
        "title": "Le Magasin aux Vivres",
        "address": {
            "address_locality": "5 Avenue Ney",
            "postal_code": "57000"
        }
    },
    {
        "title": "La Dame de Pic",
        "address": {
            "address_locality": "20 Rue du Louvre",
            "postal_code": "75001"
        }
    },
    {
        "title": "L'Aparté",
        "address": {
            "address_locality": "21 Rue de l’Europe",
            "postal_code": "31850"
        }
    },
    {
        "title": "Yoann Conte",
        "address": {
            "address_locality": "13 Vieille-Route-des-Pensières",
            "postal_code": "74290"
        }
    },
    {
        "title": "La Rotonde",
        "address": {
            "address_locality": "200 avenue du Casino",
            "postal_code": "69890"
        }
    },
    {
        "title": "La Marelle",
        "address": {
            "address_locality": "1593 av. de Lyon",
            "postal_code": "01960"
        }
    },
    {
        "title": "Le Bénaton",
        "address": {
            "address_locality": "25 Rue du Faubourg-Bretonnière",
            "postal_code": "21200"
        }
    },
    {
        "title": "Ithurria",
        "address": {
            "address_locality": "pl. du Fronton",
            "postal_code": "64250"
        }
    },
    {
        "title": "La Bonne Étape",
        "address": {
            "address_locality": "chemin du lac",
            "postal_code": "04160"
        }
    },
    {
        "title": "La Bastide de Moustiers",
        "address": {
            "address_locality": "Parc naturel régional du Verdon, Chemin de Quinson",
            "postal_code": "04360"
        }
    },
    {
        "title": "Restaurant du Château",
        "address": {
            "address_locality": "15 avenue des Reynats",
            "postal_code": "24650"
        }
    },
    {
        "title": "Château de Courban",
        "address": {
            "address_locality": "7 rue du Lavoir",
            "postal_code": "21520"
        }
    },
    {
        "title": "Pierre Gagnaire",
        "address": {
            "address_locality": "6 Rue Balzac",
            "postal_code": "75008"
        }
    },
    {
        "title": "William Frachot",
        "address": {
            "address_locality": "5 rue Michelet",
            "postal_code": "21000"
        }
    },
    {
        "title": "Le Pavillon des Boulevards",
        "address": {
            "address_locality": "120 r. Croix-de-Seguey",
            "postal_code": "33000"
        }
    },
    {
        "title": "Le Pergolèse",
        "address": {
            "address_locality": "40 Rue Pergolèse",
            "postal_code": "75116"
        }
    },
    {
        "title": "Loiseau des Vignes",
        "address": {
            "address_locality": "31 Rue Jean Francois Maufoux",
            "postal_code": "21200"
        }
    },
    {
        "title": "Alain Llorca",
        "address": {
            "address_locality": "350 Route de Saint-Paul",
            "postal_code": "06480"
        }
    },
    {
        "title": "La Chaumière",
        "address": {
            "address_locality": "346 av. du Mar. -Juin",
            "postal_code": "39100"
        }
    },
    {
        "title": "Hostellerie du Rosenmeer",
        "address": {
            "address_locality": "45 avenue de la Gare",
            "postal_code": "67560"
        }
    },
    {
        "title": "Initial",
        "address": {
            "address_locality": "24 Rue Saint-Manvieu",
            "postal_code": "14000"
        }
    },
    {
        "title": "Pierre Orsi",
        "address": {
            "address_locality": "Place Kléber",
            "postal_code": "69006"
        }
    },
    {
        "title": "L'Auberge de la Pomme",
        "address": {
            "address_locality": "44 rue de l' eure",
            "postal_code": "27340"
        }
    },
    {
        "title": "La Licorne Royale",
        "address": {
            "address_locality": "27 Place Isaac Benserade",
            "postal_code": "27480"
        }
    },
    {
        "title": "Alléno Paris au Pavillon Ledoyen",
        "address": {
            "address_locality": "8 avenue Dutuit",
            "postal_code": "75008"
        }
    },
    {
        "title": "Julien Binz",
        "address": {
            "address_locality": "7 Rue des Cigognes",
            "postal_code": "68770"
        }
    },
    {
        "title": "Domaine de Clairefontaine",
        "address": {
            "address_locality": "chemin des Fontanettes",
            "postal_code": "38121"
        }
    },
    {
        "title": "Faventia",
        "address": {
            "address_locality": "3100 route de Bagnols-en-Forêt",
            "postal_code": "83440"
        }
    },
    {
        "title": "L'Ekrin by Laurent Azoulay",
        "address": {
            "address_locality": "Route de la Montée",
            "postal_code": "73550"
        }
    },
    {
        "title": "Le M",
        "address": {
            "address_locality": "22 r. du Cdt-Drogou",
            "postal_code": "29200"
        }
    },
    {
        "title": "Les Morainières",
        "address": {
            "address_locality": "route de Marétel",
            "postal_code": "73170"
        }
    },
    {
        "title": "Le Baudelaire",
        "address": {
            "address_locality": "8 rue Duphot",
            "postal_code": "75001"
        }
    },
    {
        "title": "Le Moulin de la Gorce",
        "address": {
            "address_locality": "D17",
            "postal_code": "87800"
        }
    },
    {
        "title": "Le Prince Noir - Vivien Durand",
        "address": {
            "address_locality": "1 rue du Prince Noir",
            "postal_code": "33310"
        }
    },
    {
        "title": "Le Clos des Sens",
        "address": {
            "address_locality": "13 r. J. -Mermoz",
            "postal_code": "74940"
        }
    },
    {
        "title": "Le Chantecler",
        "address": {
            "address_locality": "37 Promenade des Anglais",
            "postal_code": "06000"
        }
    },
    {
        "title": "Le Carmin",
        "address": {
            "address_locality": "4B Place Carnot",
            "postal_code": "21200"
        }
    },
    {
        "title": "Benoit",
        "address": {
            "address_locality": "20 Rue St-Martin",
            "postal_code": "75004"
        }
    },
    {
        "title": "Hostellerie la Montagne",
        "address": {
            "address_locality": "10 rue Pisseloup",
            "postal_code": "52330"
        }
    },
    {
        "title": "Entre Vigne et Garrigue",
        "address": {
            "address_locality": "600 route de Saint Bruno",
            "postal_code": "30131"
        }
    },
    {
        "title": "Le Corot",
        "address": {
            "address_locality": "55 Rue de Versailles",
            "postal_code": "92410"
        }
    },
    {
        "title": "Le Relais des Moines",
        "address": {
            "address_locality": "route de Ste-Roseline",
            "postal_code": "83460"
        }
    },
    {
        "title": "Cyril Attrazic",
        "address": {
            "address_locality": "10 rte du Languedoc",
            "postal_code": "48130"
        }
    },
    {
        "title": "Pont de l'Ouysse",
        "address": {
            "address_locality": "D23",
            "postal_code": "46200"
        }
    },
    {
        "title": "La Gouesnière",
        "address": {
            "address_locality": "1 Le Limonay",
            "postal_code": "35350"
        }
    },
    {
        "title": "Anne de Bretagne",
        "address": {
            "address_locality": "163, Boulevard de la Tara",
            "postal_code": "44770"
        }
    },
    {
        "title": "Le Pré du Moulin",
        "address": {
            "address_locality": "rte de Ste-Cécile-les-Vignes",
            "postal_code": "84830"
        }
    },
    {
        "title": "La Table des Merville",
        "address": {
            "address_locality": "3 place Richard",
            "postal_code": "31320"
        }
    },
    {
        "title": "L'Ambroisie",
        "address": {
            "address_locality": "9 Place des Vosges",
            "postal_code": "75004"
        }
    },
    {
        "title": "Girardin",
        "address": {
            "address_locality": "19 Rue des Têtes",
            "postal_code": "68000"
        }
    },
    {
        "title": "Le Vivarais",
        "address": {
            "address_locality": "5 avenue Expilly",
            "postal_code": "07600"
        }
    },
    {
        "title": "Michel Chabran - La Grande Table",
        "address": {
            "address_locality": "29 Avenue du Quarante-Cinquième Parallèle",
            "postal_code": "26600"
        }
    },
    {
        "title": "Le Domaine du Colombier",
        "address": {
            "address_locality": "270 Chemin de Malombre",
            "postal_code": "26780"
        }
    },
    {
        "title": "Chapelle Saint-Martin",
        "address": {
            "address_locality": "33, Saint Martin du Fault",
            "postal_code": "87510"
        }
    },
    {
        "title": "La Scène Thélème",
        "address": {
            "address_locality": "18 Rue Troyon",
            "postal_code": "75017"
        }
    },
    {
        "title": "Origine",
        "address": {
            "address_locality": "26 Rampe Cauchoise",
            "postal_code": "76000"
        }
    },
    {
        "title": "La Palme d'Or",
        "address": {
            "address_locality": "73 Boulevard de la Croisette",
            "postal_code": "06400"
        }
    },
    {
        "title": "Cobéa",
        "address": {
            "address_locality": "11 r. Raymond Losserand",
            "postal_code": "75014"
        }
    },
    {
        "title": "Les Jardins de l'Espadon",
        "address": {
            "address_locality": "15 place Vendôme",
            "postal_code": "75001"
        }
    },
    {
        "title": "Penati al Baretto",
        "address": {
            "address_locality": "9 rue Balzac",
            "postal_code": "75008"
        }
    },
    {
        "title": "Kasbür",
        "address": {
            "address_locality": "8 Rue de Dettwiller",
            "postal_code": "67700"
        }
    },
    {
        "title": "Il Cortile",
        "address": {
            "address_locality": "11 r. des Franciscains",
            "postal_code": "68100"
        }
    },
    {
        "title": "Le Saison",
        "address": {
            "address_locality": "1 imp. du Vieux-Bourg",
            "postal_code": "35760"
        }
    },
    {
        "title": "Lamartine",
        "address": {
            "address_locality": "Route du Tunnel du Chat",
            "postal_code": "73370"
        }
    },
    {
        "title": "Le Cinq",
        "address": {
            "address_locality": "31 av. George V",
            "postal_code": "75008"
        }
    },
    {
        "title": "Arpège",
        "address": {
            "address_locality": "84 Rue de Varenne",
            "postal_code": "75007"
        }
    },
    {
        "title": "114, Faubourg",
        "address": {
            "address_locality": "114 r. Fg St-Honoré",
            "postal_code": "75008"
        }
    },
    {
        "title": "Auberge de la Charme",
        "address": {
            "address_locality": "12 r. de la Charme",
            "postal_code": "21370"
        }
    },
    {
        "title": "La Ferme de l'Hospital",
        "address": {
            "address_locality": "rte du golf",
            "postal_code": "74160"
        }
    },
    {
        "title": "Casadelmar",
        "address": {
            "address_locality": "Route de la Plage de Palombaggia",
            "postal_code": "20137"
        }
    },
    {
        "title": "Emporio Armani Ristorante",
        "address": {
            "address_locality": "149 Boulevard Saint-Germain",
            "postal_code": "75006"
        }
    },
    {
        "title": "I Salti",
        "address": {
            "address_locality": "route du Reginu",
            "postal_code": "20226"
        }
    },
    {
        "title": "Cayola",
        "address": {
            "address_locality": "76 promenade de Cayola",
            "postal_code": "85180"
        }
    },
    {
        "title": "L'Essentiel",
        "address": {
            "address_locality": "8 r. de la Clarté",
            "postal_code": "24000"
        }
    },
    {
        "title": "Val d'Auge",
        "address": {
            "address_locality": "805 av. du Gén.-de-Gaulle",
            "postal_code": "59910"
        }
    }
]