[
    {
        "id": "334669",
        "title": "Racine Carrée",
        "address": {
            "address_locality": "Uccle",
            "postal_code": "1180"
        },
        "restaurant_url": "https://www.lafourchette.com/restaurant/Racine Carree/334669#info"
    },
    {
        "id": "324229",
        "title": "Racine Restaurant",
        "address": {
            "address_locality": "Lyon",
            "postal_code": "69009"
        },
        "restaurant_url": "https://www.lafourchette.com/restaurant/Racine Restaurant/324229#info"
    },
    {
        "id": "324977",
        "title": "Racines des Prés",
        "address": {
            "address_locality": "Paris",
            "postal_code": "75007"
        },
        "restaurant_url": "https://www.lafourchette.com/restaurant/Racines des Pres/324977#info"
    },
    {
        "id": "213739",
        "title": "Bouillon Racine",
        "address": {
            "address_locality": "Paris",
            "postal_code": "75006"
        },
        "restaurant_url": "https://www.lafourchette.com/restaurant/Bouillon Racine/213739#info"
    },
    {
        "id": "215827",
        "title": "Les Racines",
        "address": {
            "address_locality": "Colmar",
            "postal_code": "68000"
        },
        "restaurant_url": "https://www.lafourchette.com/restaurant/Les Racines/215827#info"
    },
    {
        "id": "366517",
        "title": "Le Prince Racine",
        "address": {
            "address_locality": "Paris",
            "postal_code": "75006"
        },
        "restaurant_url": "https://www.lafourchette.com/restaurant/Le Prince Racine/366517#info"
    },
    {
        "id": "52006",
        "title": "Osteria Les Racines",
        "address": {
            "address_locality": "Torino",
            "postal_code": "10146"
        },
        "restaurant_url": "https://www.lafourchette.com/restaurant/Osteria Les Racines/52006#info"
    },
    {
        "id": "12314",
        "title": "L'Amphitryon",
        "address": {
            "address_locality": "Paris",
            "postal_code": "75009"
        },
        "restaurant_url": "https://www.lafourchette.com/restaurant/L'Amphitryon/12314#info"
    },
    {
        "id": "31173",
        "title": "L'Amphitryon",
        "address": {
            "address_locality": "Pézenas",
            "postal_code": "34120"
        },
        "restaurant_url": "https://www.lafourchette.com/restaurant/L'Amphitryon/31173#info"
    },
    {
        "id": "291371",
        "title": "L'Amphitryon - Hôtel Le Boeuf Couronné",
        "address": {
            "address_locality": "Chartres",
            "postal_code": "28000"
        },
        "restaurant_url": "https://www.lafourchette.com/restaurant/L'Amphitryon - Hotel Le Boeuf Couronne/291371#info"
    },
    {
        "id": "310829",
        "title": "Dominique Bouchet",
        "address": {
            "address_locality": "Paris",
            "postal_code": "75008"
        },
        "restaurant_url": "https://www.lafourchette.com/restaurant/Dominique Bouchet/310829#info"
    },
    {
        "id": "44000",
        "title": "Logis de la Cadène",
        "address": {
            "address_locality": "Saint-Émilion",
            "postal_code": "33330"
        },
        "restaurant_url": "https://www.lafourchette.com/restaurant/Logis de la Cadene/44000#info"
    },
    {
        "id": "6710",
        "title": "Les Rosiers",
        "address": {
            "address_locality": "Biarritz",
            "postal_code": "64200"
        },
        "restaurant_url": "https://www.lafourchette.com/restaurant/Les Rosiers/6710#info"
    },
    {
        "id": "21741",
        "title": "Restaurant du Palais Royal",
        "address": {
            "address_locality": "Paris",
            "postal_code": "75001"
        },
        "restaurant_url": "https://www.lafourchette.com/restaurant/Restaurant du Palais Royal/21741#info"
    },
    {
        "id": "18007",
        "title": "Campanile Montpellier Est-Le Millénaire",
        "address": {
            "address_locality": "Montpellier",
            "postal_code": "34000"
        },
        "restaurant_url": "https://www.lafourchette.com/restaurant/Campanile Montpellier Est-Le Millenaire/18007#info"
    },
    {
        "id": "38155",
        "title": "Flaveur",
        "address": {
            "address_locality": "Nice",
            "postal_code": "06000"
        },
        "restaurant_url": "https://www.lafourchette.com/restaurant/Flaveur/38155#info"
    },
    {
        "id": "6765",
        "title": "L'Auberge de la Diligence",
        "address": {
            "address_locality": "Loiré",
            "postal_code": "49440"
        },
        "restaurant_url": "https://www.lafourchette.com/restaurant/L'Auberge de la Diligence/6765#info"
    },
    {
        "id": "60418",
        "title": "Apicius",
        "address": {
            "address_locality": "Paris",
            "postal_code": "75008"
        },
        "restaurant_url": "https://www.lafourchette.com/restaurant/Apicius/60418#info"
    },
    {
        "id": "6134",
        "title": "Apicius",
        "address": {
            "address_locality": "Valencia",
            "postal_code": "46021"
        },
        "restaurant_url": "https://www.lafourchette.com/restaurant/Apicius/6134#info"
    },
    {
        "id": "231741",
        "title": "Apicius",
        "address": {
            "address_locality": "Castricum",
            "postal_code": "1901 KD"
        },
        "restaurant_url": "https://www.lafourchette.com/restaurant/Apicius/231741#info"
    },
    {
        "id": "64921",
        "title": "Apicius",
        "address": {
            "address_locality": "Lisboa",
            "postal_code": "1200-109"
        },
        "restaurant_url": "https://www.lafourchette.com/restaurant/Apicius/64921#info"
    },
    {
        "id": "5727",
        "title": "Mavrommatis",
        "address": {
            "address_locality": "Paris",
            "postal_code": "75005"
        },
        "restaurant_url": "https://www.lafourchette.com/restaurant/Mavrommatis/5727#info"
    },
    {
        "id": "308795",
        "title": "Mavrommatis - Passy",
        "address": {
            "address_locality": "Paris",
            "postal_code": "75116"
        },
        "restaurant_url": "https://www.lafourchette.com/restaurant/Mavrommatis - Passy/308795#info"
    },
    {
        "id": "2638",
        "title": "Le Bistrot Mavrommatis",
        "address": {
            "address_locality": "Paris",
            "postal_code": "75001"
        },
        "restaurant_url": "https://www.lafourchette.com/restaurant/Le Bistrot Mavrommatis/2638#info"
    },
    {
        "id": "8933",
        "title": "Les Clefs d'Argent",
        "address": {
            "address_locality": "Mont-de-Marsan",
            "postal_code": "40000"
        },
        "restaurant_url": "https://www.lafourchette.com/restaurant/Les Clefs d'Argent/8933#info"
    },
    {
        "id": "4697",
        "title": "Les Terrasses de Lyon",
        "address": {
            "address_locality": "Lyon",
            "postal_code": "69005"
        },
        "restaurant_url": "https://www.lafourchette.com/restaurant/Les Terrasses de Lyon/4697#info"
    },
    {
        "id": "223867",
        "title": "Grand Hotel de L'Empereur",
        "address": {
            "address_locality": "Maastricht",
            "postal_code": "6221 BP"
        },
        "restaurant_url": "https://www.lafourchette.com/restaurant/Grand Hotel de L'Empereur/223867#info"
    },
    {
        "id": "39671",
        "title": "L'écrin",
        "address": {
            "address_locality": "Blagnac",
            "postal_code": "31700"
        },
        "restaurant_url": "https://www.lafourchette.com/restaurant/L'ecrin/39671#info"
    },
    {
        "id": "326081",
        "title": "L'Écrin",
        "address": {
            "address_locality": "Paris",
            "postal_code": "75008"
        },
        "restaurant_url": "https://www.lafourchette.com/restaurant/L'Ecrin/326081#info"
    },
    {
        "id": "42817",
        "title": "L'Écrin",
        "address": {
            "address_locality": "Arles",
            "postal_code": "13200"
        },
        "restaurant_url": "https://www.lafourchette.com/restaurant/L'Ecrin/42817#info"
    },
    {
        "id": "293183",
        "title": "L'Écrin Plage",
        "address": {
            "address_locality": "Cannes",
            "postal_code": "06400"
        },
        "restaurant_url": "https://www.lafourchette.com/restaurant/L'Ecrin Plage/293183#info"
    },
    {
        "id": "207363",
        "title": "Flora \"Ecrin des Saveurs\"",
        "address": {
            "address_locality": "Villeneuve-Loubet",
            "postal_code": "06270"
        },
        "restaurant_url": "https://www.lafourchette.com/restaurant/Flora \"Ecrin des Saveurs\"/207363#info"
    },
    {
        "id": "33223",
        "title": "Maison Crouzil - Hôtel l'Ecrin",
        "address": {
            "address_locality": "Plancoët",
            "postal_code": "22130"
        },
        "restaurant_url": "https://www.lafourchette.com/restaurant/Maison Crouzil - Hotel l'Ecrin/33223#info"
    },
    {
        "id": "7872",
        "title": "Le Pavillon des Boulevards - Denis Franc",
        "address": {
            "address_locality": "Bordeaux",
            "postal_code": "33000"
        },
        "restaurant_url": "https://www.lafourchette.com/restaurant/Le Pavillon des Boulevards - Denis Franc/7872#info"
    },
    {
        "id": "23087",
        "title": "Frédéric Simonin",
        "address": {
            "address_locality": "Paris",
            "postal_code": "75017"
        },
        "restaurant_url": "https://www.lafourchette.com/restaurant/Frederic Simonin/23087#info"
    },
    {
        "id": "3485",
        "title": "Manoir de la Boulaie - Laurent Saudeau",
        "address": {
            "address_locality": "Haute-Goulaine",
            "postal_code": "44115"
        },
        "restaurant_url": "https://www.lafourchette.com/restaurant/Manoir de la Boulaie - Laurent Saudeau/3485#info"
    },
    {
        "id": "295101",
        "title": "Le Cerceau",
        "address": {
            "address_locality": "Paris",
            "postal_code": "75002"
        },
        "restaurant_url": "https://www.lafourchette.com/restaurant/Le Cerceau/295101#info"
    },
    {
        "id": "29826",
        "title": "Loiseau des Ducs",
        "address": {
            "address_locality": "Dijon",
            "postal_code": "21000"
        },
        "restaurant_url": "https://www.lafourchette.com/restaurant/Loiseau des Ducs/29826#info"
    },
    {
        "id": "289357",
        "title": "Les Cèdres",
        "address": {
            "address_locality": "Le Coudray-Montceaux",
            "postal_code": "91830"
        },
        "restaurant_url": "https://www.lafourchette.com/restaurant/Les Cedres/289357#info"
    },
    {
        "id": "10755",
        "title": "Les Cèdres",
        "address": {
            "address_locality": "Lille",
            "postal_code": "59000"
        },
        "restaurant_url": "https://www.lafourchette.com/restaurant/Les Cedres/10755#info"
    },
    {
        "id": "310189",
        "title": "Les Cèdres du Liban",
        "address": {
            "address_locality": "Genève",
            "postal_code": "CH-1201"
        },
        "restaurant_url": "https://www.lafourchette.com/restaurant/Les Cedres du Liban/310189#info"
    },
    {
        "id": "2447",
        "title": "Les Cèdres du Liban",
        "address": {
            "address_locality": "Paris",
            "postal_code": "75015"
        },
        "restaurant_url": "https://www.lafourchette.com/restaurant/Les Cedres du Liban/2447#info"
    },
    {
        "id": "78036",
        "title": "Jean Claude",
        "address": {
            "address_locality": "København",
            "postal_code": "2100"
        },
        "restaurant_url": "https://www.lafourchette.com/restaurant/Jean Claude/78036#info"
    },
    {
        "id": "66422",
        "title": "Chez Jean-Claude",
        "address": {
            "address_locality": "Paris",
            "postal_code": "75014"
        },
        "restaurant_url": "https://www.lafourchette.com/restaurant/Chez Jean-Claude/66422#info"
    },
    {
        "id": "41561",
        "title": "Chez Eve et Jean-Claude",
        "address": {
            "address_locality": "Cannes",
            "postal_code": "06400"
        },
        "restaurant_url": "https://www.lafourchette.com/restaurant/Chez Eve et Jean-Claude/41561#info"
    },
    {
        "id": "360451",
        "title": "Le Stendhal",
        "address": {
            "address_locality": "Paris",
            "postal_code": "75020"
        },
        "restaurant_url": "https://www.lafourchette.com/restaurant/Le Stendhal/360451#info"
    },
    {
        "id": "18271",
        "title": "Le Clair de la Plume",
        "address": {
            "address_locality": "Grignan",
            "postal_code": "26230"
        },
        "restaurant_url": "https://www.lafourchette.com/restaurant/Le Clair de la Plume/18271#info"
    },
    {
        "id": "63173",
        "title": "Fontevraud  Le Restaurant",
        "address": {
            "address_locality": "Fontevraud-l'Abbaye",
            "postal_code": "49590"
        },
        "restaurant_url": "https://www.lafourchette.com/restaurant/Fontevraud  Le Restaurant/63173#info"
    },
    {
        "id": "405",
        "title": "Maison Rostang",
        "address": {
            "address_locality": "Paris",
            "postal_code": "75017"
        },
        "restaurant_url": "https://www.lafourchette.com/restaurant/Maison Rostang/405#info"
    },
    {
        "id": "63264",
        "title": "Shang Palace",
        "address": {
            "address_locality": "Istanbul",
            "postal_code": ""
        },
        "restaurant_url": "https://www.lafourchette.com/restaurant/Shang Palace/63264#info"
    },
    {
        "id": "8977",
        "title": "Shang Palace - Shangri-La Hotel, Paris",
        "address": {
            "address_locality": "Paris",
            "postal_code": "75016"
        },
        "restaurant_url": "https://www.lafourchette.com/restaurant/Shang Palace - Shangri-La Hotel, Paris/8977#info"
    },
    {
        "id": "358027",
        "title": "La Voile D'Or",
        "address": {
            "address_locality": "Le Pouliguen",
            "postal_code": "44510"
        },
        "restaurant_url": "https://www.lafourchette.com/restaurant/La Voile D'Or/358027#info"
    },
    {
        "id": "202436",
        "title": "Le Chateaubriand",
        "address": {
            "address_locality": "Paris",
            "postal_code": "75011"
        },
        "restaurant_url": "https://www.lafourchette.com/restaurant/Le Chateaubriand/202436#info"
    },
    {
        "id": "76202",
        "title": "Le Châteaubriand",
        "address": {
            "address_locality": "Paris",
            "postal_code": "75008"
        },
        "restaurant_url": "https://www.lafourchette.com/restaurant/Le Chateaubriand/76202#info"
    },
    {
        "id": "14851",
        "title": "Le Chateaubriand Chatenay Malabry",
        "address": {
            "address_locality": "Châtenay-Malabry",
            "postal_code": "92290"
        },
        "restaurant_url": "https://www.lafourchette.com/restaurant/Le Chateaubriand Chatenay Malabry/14851#info"
    },
    {
        "id": "11050",
        "title": "Le Cloître",
        "address": {
            "address_locality": "Mane",
            "postal_code": "04300"
        },
        "restaurant_url": "https://www.lafourchette.com/restaurant/Le Cloitre/11050#info"
    },
    {
        "id": "7955",
        "title": "Le Jardin du Cloître - Hôtel Couvent des Minimes",
        "address": {
            "address_locality": "Lille",
            "postal_code": "59000"
        },
        "restaurant_url": "https://www.lafourchette.com/restaurant/Le Jardin du Cloitre - Hotel Couvent des Minimes/7955#info"
    },
    {
        "id": "2934",
        "title": "Auberge du Bon Laboureur",
        "address": {
            "address_locality": "Chenonceaux",
            "postal_code": "37150"
        },
        "restaurant_url": "https://www.lafourchette.com/restaurant/Auberge du Bon Laboureur/2934#info"
    },
    {
        "id": "59114",
        "title": "Alexandre",
        "address": {
            "address_locality": "Bruxelles",
            "postal_code": "1000"
        },
        "restaurant_url": "https://www.lafourchette.com/restaurant/Alexandre/59114#info"
    },
    {
        "id": "62670",
        "title": "Alexandre",
        "address": {
            "address_locality": "Estepona, Málaga",
            "postal_code": "29680"
        },
        "restaurant_url": "https://www.lafourchette.com/restaurant/Alexandre/62670#info"
    },
    {
        "id": "6986",
        "title": "Alexandre - Michel Kayser",
        "address": {
            "address_locality": "Garons",
            "postal_code": "30128"
        },
        "restaurant_url": "https://www.lafourchette.com/restaurant/Alexandre - Michel Kayser/6986#info"
    },
    {
        "id": "289063",
        "title": "Roi Alexandre",
        "address": {
            "address_locality": "Lyon",
            "postal_code": "69003"
        },
        "restaurant_url": "https://www.lafourchette.com/restaurant/Roi Alexandre/289063#info"
    },
    {
        "id": "312497",
        "title": "La Cave d´Alexandre",
        "address": {
            "address_locality": "Marseille",
            "postal_code": "13006"
        },
        "restaurant_url": "https://www.lafourchette.com/restaurant/La Cave d´Alexandre/312497#info"
    },
    {
        "id": "204545",
        "title": "La Table d'Alexandre",
        "address": {
            "address_locality": "Nivelles",
            "postal_code": "1400"
        },
        "restaurant_url": "https://www.lafourchette.com/restaurant/La Table d'Alexandre/204545#info"
    },
    {
        "id": "68277",
        "title": "Heureux Comme Alexandre",
        "address": {
            "address_locality": "Metz",
            "postal_code": "57000"
        },
        "restaurant_url": "https://www.lafourchette.com/restaurant/Heureux Comme Alexandre/68277#info"
    },
    {
        "id": "63664",
        "title": "Heureux comme Alexandre - Mouffetard",
        "address": {
            "address_locality": "Paris",
            "postal_code": "75005"
        },
        "restaurant_url": "https://www.lafourchette.com/restaurant/Heureux comme Alexandre - Mouffetard/63664#info"
    },
    {
        "id": "74264",
        "title": "Bistrot Alexandre III",
        "address": {
            "address_locality": "Paris",
            "postal_code": "75007"
        },
        "restaurant_url": "https://www.lafourchette.com/restaurant/Bistrot Alexandre III/74264#info"
    },
    {
        "id": "12639",
        "title": "Les Chemins d'Alexandre",
        "address": {
            "address_locality": "Nantes",
            "postal_code": "44000"
        },
        "restaurant_url": "https://www.lafourchette.com/restaurant/Les Chemins d'Alexandre/12639#info"
    },
    {
        "id": "7767",
        "title": "Le Bois d'Achelles",
        "address": {
            "address_locality": "Bondues",
            "postal_code": "59910"
        },
        "restaurant_url": "https://www.lafourchette.com/restaurant/Le Bois d'Achelles/7767#info"
    },
    {
        "id": "296075",
        "title": "Bibimbaps -Peireire",
        "address": {
            "address_locality": "Paris",
            "postal_code": "75017"
        },
        "restaurant_url": "https://www.lafourchette.com/restaurant/Bibimbaps -Peireire/296075#info"
    },
    {
        "id": "5609",
        "title": "La Chapelle Saint Martin",
        "address": {
            "address_locality": "Nieul",
            "postal_code": "87510"
        },
        "restaurant_url": "https://www.lafourchette.com/restaurant/La Chapelle Saint Martin/5609#info"
    },
    {
        "id": "6794",
        "title": "La Mère Brazier - Mathieu Viannay",
        "address": {
            "address_locality": "Lyon",
            "postal_code": "69001"
        },
        "restaurant_url": "https://www.lafourchette.com/restaurant/La Mere Brazier - Mathieu Viannay/6794#info"
    },
    {
        "id": "12588",
        "title": "L'Emulsion",
        "address": {
            "address_locality": "Chambéry",
            "postal_code": "73000"
        },
        "restaurant_url": "https://www.lafourchette.com/restaurant/L'Emulsion/12588#info"
    },
    {
        "id": "28453",
        "title": "Le 1217",
        "address": {
            "address_locality": "Bagnols",
            "postal_code": "69620"
        },
        "restaurant_url": "https://www.lafourchette.com/restaurant/Le 1217/28453#info"
    },
    {
        "id": "324443",
        "title": "Maison Clovis",
        "address": {
            "address_locality": "Lyon",
            "postal_code": "69006"
        },
        "restaurant_url": "https://www.lafourchette.com/restaurant/Maison Clovis/324443#info"
    },
    {
        "id": "6655",
        "title": "Bistrot Gourmand Clovis",
        "address": {
            "address_locality": "Tourrettes-sur-Loup",
            "postal_code": "06140"
        },
        "restaurant_url": "https://www.lafourchette.com/restaurant/Bistrot Gourmand Clovis/6655#info"
    },
    {
        "id": "313905",
        "title": "Auberge le Prieuré",
        "address": {
            "address_locality": "Moirax",
            "postal_code": "47310"
        },
        "restaurant_url": "https://www.lafourchette.com/restaurant/Auberge le Prieure/313905#info"
    },
    {
        "id": "60418",
        "title": "Apicius",
        "address": {
            "address_locality": "Paris",
            "postal_code": "75008"
        },
        "restaurant_url": "https://www.lafourchette.com/restaurant/Apicius/60418#info"
    },
    {
        "id": "6134",
        "title": "Apicius",
        "address": {
            "address_locality": "Valencia",
            "postal_code": "46021"
        },
        "restaurant_url": "https://www.lafourchette.com/restaurant/Apicius/6134#info"
    },
    {
        "id": "231741",
        "title": "Apicius",
        "address": {
            "address_locality": "Castricum",
            "postal_code": "1901 KD"
        },
        "restaurant_url": "https://www.lafourchette.com/restaurant/Apicius/231741#info"
    },
    {
        "id": "64921",
        "title": "Apicius",
        "address": {
            "address_locality": "Lisboa",
            "postal_code": "1200-109"
        },
        "restaurant_url": "https://www.lafourchette.com/restaurant/Apicius/64921#info"
    },
    {
        "id": "15506",
        "title": "L'Alchimiste",
        "address": {
            "address_locality": "Nantes",
            "postal_code": "44000"
        },
        "restaurant_url": "https://www.lafourchette.com/restaurant/L'Alchimiste/15506#info"
    },
    {
        "id": "202198",
        "title": "L'Alchimiste",
        "address": {
            "address_locality": "Ranspach-le-Bas",
            "postal_code": "68730"
        },
        "restaurant_url": "https://www.lafourchette.com/restaurant/L'Alchimiste/202198#info"
    },
    {
        "id": "30876",
        "title": "L'Alchimiste",
        "address": {
            "address_locality": "Montpellier",
            "postal_code": "34000"
        },
        "restaurant_url": "https://www.lafourchette.com/restaurant/L'Alchimiste/30876#info"
    },
    {
        "id": "1338",
        "title": "Les Alchimistes",
        "address": {
            "address_locality": "Paris",
            "postal_code": "75002"
        },
        "restaurant_url": "https://www.lafourchette.com/restaurant/Les Alchimistes/1338#info"
    },
    {
        "id": "30658",
        "title": "L´Alchimiste",
        "address": {
            "address_locality": "Paris",
            "postal_code": "75012"
        },
        "restaurant_url": "https://www.lafourchette.com/restaurant/L´Alchimiste/30658#info"
    },
    {
        "id": "65607",
        "title": "Le Château de Sable",
        "address": {
            "address_locality": "Porspoder",
            "postal_code": "29840"
        },
        "restaurant_url": "https://www.lafourchette.com/restaurant/Le Chateau de Sable/65607#info"
    },
    {
        "id": "42716",
        "title": "Les Genêts",
        "address": {
            "address_locality": "Hourtin",
            "postal_code": "33990"
        },
        "restaurant_url": "https://www.lafourchette.com/restaurant/Les Genets/42716#info"
    },
    {
        "id": "2394",
        "title": "Les Genêts",
        "address": {
            "address_locality": "Sablet",
            "postal_code": "84110"
        },
        "restaurant_url": "https://www.lafourchette.com/restaurant/Les Genets/2394#info"
    },
    {
        "id": "317277",
        "title": "Quinsou",
        "address": {
            "address_locality": "Paris",
            "postal_code": "75006"
        },
        "restaurant_url": "https://www.lafourchette.com/restaurant/Quinsou/317277#info"
    },
    {
        "id": "331387",
        "title": "Le Prieuré",
        "address": {
            "address_locality": "Saint-Marcel",
            "postal_code": "36200"
        },
        "restaurant_url": "https://www.lafourchette.com/restaurant/Le Prieure/331387#info"
    },
    {
        "id": "41777",
        "title": "Le Prieuré",
        "address": {
            "address_locality": "Saint-Marcel-lès-Sauzet",
            "postal_code": "26740"
        },
        "restaurant_url": "https://www.lafourchette.com/restaurant/Le Prieure/41777#info"
    },
    {
        "id": "689",
        "title": "Le Prieuré",
        "address": {
            "address_locality": "Villeneuve-lès-Avignon",
            "postal_code": "30400"
        },
        "restaurant_url": "https://www.lafourchette.com/restaurant/Le Prieure/689#info"
    },
    {
        "id": "287539",
        "title": "Le Prieuré",
        "address": {
            "address_locality": "Thonon-les-Bains",
            "postal_code": "74200"
        },
        "restaurant_url": "https://www.lafourchette.com/restaurant/Le Prieure/287539#info"
    },
    {
        "id": "28803",
        "title": "Le Prieuré",
        "address": {
            "address_locality": "Quimper",
            "postal_code": "29000"
        },
        "restaurant_url": "https://www.lafourchette.com/restaurant/Le Prieure/28803#info"
    },
    {
        "id": "46321",
        "title": "Le Prieuré",
        "address": {
            "address_locality": "Saint-Laurent-du-Var",
            "postal_code": "06700"
        },
        "restaurant_url": "https://www.lafourchette.com/restaurant/Le Prieure/46321#info"
    },
    {
        "id": "3607",
        "title": "Le Prieuré",
        "address": {
            "address_locality": "Maule",
            "postal_code": "78580"
        },
        "restaurant_url": "https://www.lafourchette.com/restaurant/Le Prieure/3607#info"
    },
    {
        "id": "72538",
        "title": "Le Prieuré d'Estagel",
        "address": {
            "address_locality": "Saint-Gilles",
            "postal_code": "30800"
        },
        "restaurant_url": "https://www.lafourchette.com/restaurant/Le Prieure d'Estagel/72538#info"
    },
    {
        "id": "32196",
        "title": "Le Prieuré des Gourmands",
        "address": {
            "address_locality": "Bonnœuvre",
            "postal_code": "44540"
        },
        "restaurant_url": "https://www.lafourchette.com/restaurant/Le Prieure des Gourmands/32196#info"
    },
    {
        "id": "313905",
        "title": "Auberge le Prieuré",
        "address": {
            "address_locality": "Moirax",
            "postal_code": "47310"
        },
        "restaurant_url": "https://www.lafourchette.com/restaurant/Auberge le Prieure/313905#info"
    },
    {
        "id": "272593",
        "title": "MONTÉE",
        "address": {
            "address_locality": "Paris",
            "postal_code": "75014"
        },
        "restaurant_url": "https://www.lafourchette.com/restaurant/MONTEE/272593#info"
    },
    {
        "id": "220087",
        "title": "Oceania",
        "address": {
            "address_locality": "Amsterdam",
            "postal_code": "1078 GH"
        },
        "restaurant_url": "https://www.lafourchette.com/restaurant/Oceania/220087#info"
    },
    {
        "id": "61873",
        "title": "L'Océana",
        "address": {
            "address_locality": "Lanton",
            "postal_code": "33138"
        },
        "restaurant_url": "https://www.lafourchette.com/restaurant/L'Oceana/61873#info"
    },
    {
        "id": "43729",
        "title": "L'Oceane",
        "address": {
            "address_locality": "Miami Playa",
            "postal_code": "43892"
        },
        "restaurant_url": "https://www.lafourchette.com/restaurant/L'Oceane/43729#info"
    },
    {
        "id": "12140",
        "title": "L'Océan",
        "address": {
            "address_locality": "Le Bois-Plage-en-Ré",
            "postal_code": "17580"
        },
        "restaurant_url": "https://www.lafourchette.com/restaurant/L'Ocean/12140#info"
    },
    {
        "id": "237587",
        "title": "Ocean",
        "address": {
            "address_locality": "Hellevoetsluis",
            "postal_code": "3224 HA"
        },
        "restaurant_url": "https://www.lafourchette.com/restaurant/Ocean/237587#info"
    },
    {
        "id": "227347",
        "title": "Ocean",
        "address": {
            "address_locality": "Werkendam",
            "postal_code": "4251 CS"
        },
        "restaurant_url": "https://www.lafourchette.com/restaurant/Ocean/227347#info"
    },
    {
        "id": "31297",
        "title": "L'Océanide",
        "address": {
            "address_locality": "Nantes",
            "postal_code": "44000"
        },
        "restaurant_url": "https://www.lafourchette.com/restaurant/L'Oceanide/31297#info"
    },
    {
        "id": "232725",
        "title": "Ocean",
        "address": {
            "address_locality": "Zierikzee",
            "postal_code": "4301 GZ"
        },
        "restaurant_url": "https://www.lafourchette.com/restaurant/Ocean/232725#info"
    },
    {
        "id": "200310",
        "title": "Oceanfood",
        "address": {
            "address_locality": "Monza",
            "postal_code": "I-20900"
        },
        "restaurant_url": "https://www.lafourchette.com/restaurant/Oceanfood/200310#info"
    },
    {
        "id": "253589",
        "title": "Oceans Square",
        "address": {
            "address_locality": "Den Haag",
            "postal_code": "2586 CR"
        },
        "restaurant_url": "https://www.lafourchette.com/restaurant/Oceans Square/253589#info"
    },
    {
        "id": "346175",
        "title": "Restaurant Havfruen",
        "address": {
            "address_locality": "København",
            "postal_code": "1599"
        },
        "restaurant_url": "https://www.lafourchette.com/restaurant/Restaurant Havfruen/346175#info"
    },
    {
        "id": "251945",
        "title": "Restaurant Habibi",
        "address": {
            "address_locality": "Rotterdam",
            "postal_code": "3014 VS"
        },
        "restaurant_url": "https://www.lafourchette.com/restaurant/Restaurant Habibi/251945#info"
    },
    {
        "id": "35112",
        "title": "Restaurant Himalaya",
        "address": {
            "address_locality": "Strasbourg",
            "postal_code": "67000"
        },
        "restaurant_url": "https://www.lafourchette.com/restaurant/Restaurant Himalaya/35112#info"
    },
    {
        "id": "322553",
        "title": "Restaurante Haydée",
        "address": {
            "address_locality": "La Orotava",
            "postal_code": "38314"
        },
        "restaurant_url": "https://www.lafourchette.com/restaurant/Restaurante Haydee/322553#info"
    },
    {
        "id": "15937",
        "title": "Restaurant Himalaya",
        "address": {
            "address_locality": "Paris",
            "postal_code": "75015"
        },
        "restaurant_url": "https://www.lafourchette.com/restaurant/Restaurant Himalaya/15937#info"
    },
    {
        "id": "209577",
        "title": "Restaurant H",
        "address": {
            "address_locality": "Paris",
            "postal_code": "75004"
        },
        "restaurant_url": "https://www.lafourchette.com/restaurant/Restaurant H/209577#info"
    },
    {
        "id": "260653",
        "title": "Restaurant Harboury",
        "address": {
            "address_locality": "Tilburg",
            "postal_code": "5017"
        },
        "restaurant_url": "https://www.lafourchette.com/restaurant/Restaurant Harboury/260653#info"
    },
    {
        "id": "261075",
        "title": "restaurant HENDRICK",
        "address": {
            "address_locality": "Kampen",
            "postal_code": "8261 CA"
        },
        "restaurant_url": "https://www.lafourchette.com/restaurant/restaurant HENDRICK/261075#info"
    },
    {
        "id": "243977",
        "title": "Restaurant Habibi",
        "address": {
            "address_locality": "Amersfoort",
            "postal_code": "3811 CB"
        },
        "restaurant_url": "https://www.lafourchette.com/restaurant/Restaurant Habibi/243977#info"
    },
    {
        "id": "256345",
        "title": "Restaurant Houtplaats",
        "address": {
            "address_locality": "Rheden",
            "postal_code": "6991 JD"
        },
        "restaurant_url": "https://www.lafourchette.com/restaurant/Restaurant Houtplaats/256345#info"
    },
    {
        "id": "74936",
        "title": "L'Imaginaire",
        "address": {
            "address_locality": "Terrasson-Lavilledieu",
            "postal_code": "24120"
        },
        "restaurant_url": "https://www.lafourchette.com/restaurant/L'Imaginaire/74936#info"
    },
    {
        "id": "286989",
        "title": "Imagine",
        "address": {
            "address_locality": "Den Haag",
            "postal_code": "2595 GA"
        },
        "restaurant_url": "https://www.lafourchette.com/restaurant/Imagine/286989#info"
    },
    {
        "id": "25224",
        "title": "L'Image",
        "address": {
            "address_locality": "Montpellier",
            "postal_code": "34000"
        },
        "restaurant_url": "https://www.lafourchette.com/restaurant/L'Image/25224#info"
    },
    {
        "id": "11078",
        "title": "Imagine",
        "address": {
            "address_locality": "Boé",
            "postal_code": "47550"
        },
        "restaurant_url": "https://www.lafourchette.com/restaurant/Imagine/11078#info"
    },
    {
        "id": "20895",
        "title": "Imako",
        "address": {
            "address_locality": "Paris",
            "postal_code": "75001"
        },
        "restaurant_url": "https://www.lafourchette.com/restaurant/Imako/20895#info"
    },
    {
        "id": "44360",
        "title": "L'imaginaire",
        "address": {
            "address_locality": "Schiltigheim",
            "postal_code": "67300"
        },
        "restaurant_url": "https://www.lafourchette.com/restaurant/L'imaginaire/44360#info"
    },
    {
        "id": "66232",
        "title": "L'Image de Marc",
        "address": {
            "address_locality": "Bruxelles",
            "postal_code": "1180"
        },
        "restaurant_url": "https://www.lafourchette.com/restaurant/L'Image de Marc/66232#info"
    },
    {
        "id": "43023",
        "title": "E Imaginate",
        "address": {
            "address_locality": "Armilla",
            "postal_code": "18100"
        },
        "restaurant_url": "https://www.lafourchette.com/restaurant/E Imaginate/43023#info"
    },
    {
        "id": "60678",
        "title": "Spala Imagen",
        "address": {
            "address_locality": "Sevilla",
            "postal_code": "41003"
        },
        "restaurant_url": "https://www.lafourchette.com/restaurant/Spala Imagen/60678#info"
    },
    {
        "id": "35643",
        "title": "Asador Imanol Diversia",
        "address": {
            "address_locality": "Alcobendas",
            "postal_code": "28108"
        },
        "restaurant_url": "https://www.lafourchette.com/restaurant/Asador Imanol Diversia/35643#info"
    },
    {
        "id": "275457",
        "title": "Emporio Armani Ristorante",
        "address": {
            "address_locality": "Paris",
            "postal_code": "75006"
        },
        "restaurant_url": "https://www.lafourchette.com/restaurant/Emporio Armani Ristorante/275457#info"
    },
    {
        "id": "79665",
        "title": "Chateau du Bost - Hotel & Restaurant",
        "address": {
            "address_locality": "Bellerive-sur-Allier",
            "postal_code": "03700"
        },
        "restaurant_url": "https://www.lafourchette.com/restaurant/Chateau du Bost - Hotel & Restaurant/79665#info"
    },
    {
        "id": "217425",
        "title": "Restaurant du Château",
        "address": {
            "address_locality": "La Redorte",
            "postal_code": "11700"
        },
        "restaurant_url": "https://www.lafourchette.com/restaurant/Restaurant du Chateau/217425#info"
    },
    {
        "id": "10480",
        "title": "Restaurant du Château",
        "address": {
            "address_locality": "Jarnac",
            "postal_code": "16200"
        },
        "restaurant_url": "https://www.lafourchette.com/restaurant/Restaurant du Chateau/10480#info"
    },
    {
        "id": "343701",
        "title": "Restaurant du Château de Gilly",
        "address": {
            "address_locality": "Gilly-lès-Cîteaux",
            "postal_code": "21640"
        },
        "restaurant_url": "https://www.lafourchette.com/restaurant/Restaurant du Chateau de Gilly/343701#info"
    },
    {
        "id": "73297",
        "title": "Restaurant du Château de Laléard",
        "address": {
            "address_locality": "Saint-Hilaire-de-Villefranche",
            "postal_code": "17770"
        },
        "restaurant_url": "https://www.lafourchette.com/restaurant/Restaurant du Chateau de Laleard/73297#info"
    },
    {
        "id": "26753",
        "title": "Restaurant du Château d'Andlau",
        "address": {
            "address_locality": "Andlau",
            "postal_code": "67140"
        },
        "restaurant_url": "https://www.lafourchette.com/restaurant/Restaurant du Chateau d'Andlau/26753#info"
    },
    {
        "id": "348",
        "title": "Restaurant du Château de la Tour",
        "address": {
            "address_locality": "Cadillac",
            "postal_code": "33410"
        },
        "restaurant_url": "https://www.lafourchette.com/restaurant/Restaurant du Chateau de la Tour/348#info"
    },
    {
        "id": "45610",
        "title": "La Vieille Tour",
        "address": {
            "address_locality": "Strasbourg",
            "postal_code": "67000"
        },
        "restaurant_url": "https://www.lafourchette.com/restaurant/La Vieille Tour/45610#info"
    },
    {
        "id": "276125",
        "title": "La Vieille Tour",
        "address": {
            "address_locality": "Paris",
            "postal_code": "75005"
        },
        "restaurant_url": "https://www.lafourchette.com/restaurant/La Vieille Tour/276125#info"
    },
    {
        "id": "43466",
        "title": "La Vieille Tour",
        "address": {
            "address_locality": "Sélestat",
            "postal_code": "67600"
        },
        "restaurant_url": "https://www.lafourchette.com/restaurant/La Vieille Tour/43466#info"
    },
    {
        "id": "77134",
        "title": "Mickaël Féval",
        "address": {
            "address_locality": "Aix-en-Provence",
            "postal_code": "13100"
        },
        "restaurant_url": "https://www.lafourchette.com/restaurant/Mickael Feval/77134#info"
    },
    {
        "id": "40119",
        "title": "Pavillon Ledoyen, Alléno Paris",
        "address": {
            "address_locality": "Paris",
            "postal_code": "75008"
        },
        "restaurant_url": "https://www.lafourchette.com/restaurant/Pavillon Ledoyen, Alleno Paris/40119#info"
    },
    {
        "id": "25847",
        "title": "Pavillon Elysée Café Lenôtre",
        "address": {
            "address_locality": "Paris",
            "postal_code": "75008"
        },
        "restaurant_url": "https://www.lafourchette.com/restaurant/Pavillon Elysee Cafe Lenotre/25847#info"
    },
    {
        "id": "306505",
        "title": "Le Pavillon",
        "address": {
            "address_locality": "Le Touquet-Paris-Plage",
            "postal_code": "62520"
        },
        "restaurant_url": "https://www.lafourchette.com/restaurant/Le Pavillon/306505#info"
    },
    {
        "id": "45235",
        "title": "Le Pavillon",
        "address": {
            "address_locality": "Saint-Herblain",
            "postal_code": "44800"
        },
        "restaurant_url": "https://www.lafourchette.com/restaurant/Le Pavillon/45235#info"
    },
    {
        "id": "33532",
        "title": "Le Pavillon",
        "address": {
            "address_locality": "Paris",
            "postal_code": "75015"
        },
        "restaurant_url": "https://www.lafourchette.com/restaurant/Le Pavillon/33532#info"
    },
    {
        "id": "56132",
        "title": "Le Pavillon",
        "address": {
            "address_locality": "Sartrouville",
            "postal_code": "78500"
        },
        "restaurant_url": "https://www.lafourchette.com/restaurant/Le Pavillon/56132#info"
    },
    {
        "id": "7276",
        "title": "Le Pavillon",
        "address": {
            "address_locality": "Antibes",
            "postal_code": "06160"
        },
        "restaurant_url": "https://www.lafourchette.com/restaurant/Le Pavillon/7276#info"
    },
    {
        "id": "61183",
        "title": "Le Pavillon",
        "address": {
            "address_locality": "Sanguinet",
            "postal_code": "40460"
        },
        "restaurant_url": "https://www.lafourchette.com/restaurant/Le Pavillon/61183#info"
    },
    {
        "id": "200549",
        "title": "Le Pavillon",
        "address": {
            "address_locality": "Bruxelles",
            "postal_code": "1050"
        },
        "restaurant_url": "https://www.lafourchette.com/restaurant/Le Pavillon/200549#info"
    },
    {
        "id": "10896",
        "title": "Le Pavillon CG",
        "address": {
            "address_locality": "Reims",
            "postal_code": "51100"
        },
        "restaurant_url": "https://www.lafourchette.com/restaurant/Le Pavillon CG/10896#info"
    },
    {
        "id": "8760",
        "title": "Saturne",
        "address": {
            "address_locality": "Paris",
            "postal_code": "75002"
        },
        "restaurant_url": "https://www.lafourchette.com/restaurant/Saturne/8760#info"
    },
    {
        "id": "59546",
        "title": "Saturne",
        "address": {
            "address_locality": "Paris",
            "postal_code": "75015"
        },
        "restaurant_url": "https://www.lafourchette.com/restaurant/Saturne/59546#info"
    },
    {
        "id": "19955",
        "title": "Le Cinq",
        "address": {
            "address_locality": "Montpellier",
            "postal_code": "34000"
        },
        "restaurant_url": "https://www.lafourchette.com/restaurant/Le Cinq/19955#info"
    },
    {
        "id": "74552",
        "title": "Le Cinque Lune",
        "address": {
            "address_locality": "Valencia",
            "postal_code": "46005"
        },
        "restaurant_url": "https://www.lafourchette.com/restaurant/Le Cinque Lune/74552#info"
    },
    {
        "id": "62285",
        "title": "Le Cinq Codet",
        "address": {
            "address_locality": "Paris",
            "postal_code": "75007"
        },
        "restaurant_url": "https://www.lafourchette.com/restaurant/Le Cinq Codet/62285#info"
    },
    {
        "id": "310055",
        "title": "Le Cinq Mars",
        "address": {
            "address_locality": "Paris",
            "postal_code": "75007"
        },
        "restaurant_url": "https://www.lafourchette.com/restaurant/Le Cinq Mars/310055#info"
    },
    {
        "id": "319021",
        "title": "Le Cinquième Sens",
        "address": {
            "address_locality": "Paris",
            "postal_code": "75005"
        },
        "restaurant_url": "https://www.lafourchette.com/restaurant/Le Cinquieme Sens/319021#info"
    },
    {
        "id": "201494",
        "title": "Le 1 Cinq",
        "address": {
            "address_locality": "Paris",
            "postal_code": "75015"
        },
        "restaurant_url": "https://www.lafourchette.com/restaurant/Le 1 Cinq/201494#info"
    },
    {
        "id": "325733",
        "title": "Le Cinque Stelle",
        "address": {
            "address_locality": "Vercelli",
            "postal_code": "13100"
        },
        "restaurant_url": "https://www.lafourchette.com/restaurant/Le Cinque Stelle/325733#info"
    },
    {
        "id": "9880",
        "title": "Le Cinquième 7",
        "address": {
            "address_locality": "Puteaux",
            "postal_code": "92800"
        },
        "restaurant_url": "https://www.lafourchette.com/restaurant/Le Cinquieme 7/9880#info"
    },
    {
        "id": "17227",
        "title": "Les Cinq Saisons",
        "address": {
            "address_locality": "Vaujours",
            "postal_code": "93410"
        },
        "restaurant_url": "https://www.lafourchette.com/restaurant/Les Cinq Saisons/17227#info"
    },
    {
        "id": "42324",
        "title": "Les Cinq Épices",
        "address": {
            "address_locality": "Antibes",
            "postal_code": "06600"
        },
        "restaurant_url": "https://www.lafourchette.com/restaurant/Les Cinq Epices/42324#info"
    },
    {
        "id": "62495",
        "title": "Étude",
        "address": {
            "address_locality": "Paris",
            "postal_code": "75116"
        },
        "restaurant_url": "https://www.lafourchette.com/restaurant/Etude/62495#info"
    },
    {
        "id": "71932",
        "title": "Auberge de l'Abbaye",
        "address": {
            "address_locality": "Beaumont-en-Auge",
            "postal_code": "14950"
        },
        "restaurant_url": "https://www.lafourchette.com/restaurant/Auberge de l'Abbaye/71932#info"
    },
    {
        "id": "290279",
        "title": "Auberge de l'Abbaye",
        "address": {
            "address_locality": "Neauphle-le-Vieux",
            "postal_code": "78640"
        },
        "restaurant_url": "https://www.lafourchette.com/restaurant/Auberge de l'Abbaye/290279#info"
    },
    {
        "id": "209499",
        "title": "Auberge de l'Abbaye",
        "address": {
            "address_locality": "Arles",
            "postal_code": "13280"
        },
        "restaurant_url": "https://www.lafourchette.com/restaurant/Auberge de l'Abbaye/209499#info"
    },
    {
        "id": "290129",
        "title": "Auberge de l'Abbaye de Montheron",
        "address": {
            "address_locality": "Lausanne",
            "postal_code": "CH-1053"
        },
        "restaurant_url": "https://www.lafourchette.com/restaurant/Auberge de l'Abbaye de Montheron/290129#info"
    },
    {
        "id": "3004",
        "title": "Auberge de l'Abbaye de Noirlac",
        "address": {
            "address_locality": "Saint-Amand-Montrond",
            "postal_code": "18200"
        },
        "restaurant_url": "https://www.lafourchette.com/restaurant/Auberge de l'Abbaye de Noirlac/3004#info"
    },
    {
        "id": "6054",
        "title": "L'Auberge de l'Abbaye du Bec-Hellouin",
        "address": {
            "address_locality": "Le Bec-Hellouin",
            "postal_code": "27800"
        },
        "restaurant_url": "https://www.lafourchette.com/restaurant/L'Auberge de l'Abbaye du Bec-Hellouin/6054#info"
    },
    {
        "id": "2698",
        "title": "Jean Luc Tartarin",
        "address": {
            "address_locality": "Le Havre",
            "postal_code": "76600"
        },
        "restaurant_url": "https://www.lafourchette.com/restaurant/Jean Luc Tartarin/2698#info"
    },
    {
        "id": "5935",
        "title": "Le Grand Cerf",
        "address": {
            "address_locality": "Villers-Allerand",
            "postal_code": "51500"
        },
        "restaurant_url": "https://www.lafourchette.com/restaurant/Le Grand Cerf/5935#info"
    },
    {
        "id": "5771",
        "title": "L'Azimut",
        "address": {
            "address_locality": "La Trinité-sur-Mer",
            "postal_code": "56470"
        },
        "restaurant_url": "https://www.lafourchette.com/restaurant/L'Azimut/5771#info"
    },
    {
        "id": "61870",
        "title": "Azimut",
        "address": {
            "address_locality": "Manhay",
            "postal_code": "6960"
        },
        "restaurant_url": "https://www.lafourchette.com/restaurant/Azimut/61870#info"
    },
    {
        "id": "79454",
        "title": "L'Azimuth45",
        "address": {
            "address_locality": "Annecy",
            "postal_code": "74000"
        },
        "restaurant_url": "https://www.lafourchette.com/restaurant/L'Azimuth45/79454#info"
    },
    {
        "id": "9704",
        "title": "Azimut",
        "address": {
            "address_locality": "Barakaldo",
            "postal_code": "48902"
        },
        "restaurant_url": "https://www.lafourchette.com/restaurant/Azimut/9704#info"
    },
    {
        "id": "213927",
        "title": "Guy Laurent",
        "address": {
            "address_locality": "Contrexéville",
            "postal_code": "88140"
        },
        "restaurant_url": "https://www.lafourchette.com/restaurant/Guy Laurent/213927#info"
    },
    {
        "id": "38211",
        "title": "Poissonnerie Laurent",
        "address": {
            "address_locality": "Cassis",
            "postal_code": "13260"
        },
        "restaurant_url": "https://www.lafourchette.com/restaurant/Poissonnerie Laurent/38211#info"
    },
    {
        "id": "64379",
        "title": "Laurentina - O Rei do Bacalhau",
        "address": {
            "address_locality": "Lisboa",
            "postal_code": "1050-067"
        },
        "restaurant_url": "https://www.lafourchette.com/restaurant/Laurentina - O Rei do Bacalhau/64379#info"
    },
    {
        "id": "310489",
        "title": "Le Saint-Laurent",
        "address": {
            "address_locality": "Paris",
            "postal_code": "75008"
        },
        "restaurant_url": "https://www.lafourchette.com/restaurant/Le Saint-Laurent/310489#info"
    },
    {
        "id": "10429",
        "title": "L'Alexandrin - Laurent Rigal",
        "address": {
            "address_locality": "Lyon",
            "postal_code": "69003"
        },
        "restaurant_url": "https://www.lafourchette.com/restaurant/L'Alexandrin - Laurent Rigal/10429#info"
    },
    {
        "id": "2811",
        "title": "Augusto Chez Laurent",
        "address": {
            "address_locality": "Deauville",
            "postal_code": "14800"
        },
        "restaurant_url": "https://www.lafourchette.com/restaurant/Augusto Chez Laurent/2811#info"
    },
    {
        "id": "13217",
        "title": "Le Saint-Laurent",
        "address": {
            "address_locality": "Mantes-la-Jolie",
            "postal_code": "78200"
        },
        "restaurant_url": "https://www.lafourchette.com/restaurant/Le Saint-Laurent/13217#info"
    },
    {
        "id": "17408",
        "title": "La Vigne Saint Laurent",
        "address": {
            "address_locality": "Paris",
            "postal_code": "75010"
        },
        "restaurant_url": "https://www.lafourchette.com/restaurant/La Vigne Saint Laurent/17408#info"
    },
    {
        "id": "59646",
        "title": "La Table de Laurent",
        "address": {
            "address_locality": "Formerie",
            "postal_code": "60220"
        },
        "restaurant_url": "https://www.lafourchette.com/restaurant/La Table de Laurent/59646#info"
    },
    {
        "id": "72251",
        "title": "La Villa Saint-Laurent",
        "address": {
            "address_locality": "Saint-Laurent-des-Vignes",
            "postal_code": "24100"
        },
        "restaurant_url": "https://www.lafourchette.com/restaurant/La Villa Saint-Laurent/72251#info"
    },
    {
        "id": "334443",
        "title": "La Maison Martin",
        "address": {
            "address_locality": "Sainte-Geneviève-des-Bois",
            "postal_code": "91700"
        },
        "restaurant_url": "https://www.lafourchette.com/restaurant/La Maison Martin/334443#info"
    },
    {
        "id": "25902",
        "title": "Le Grand Café Capucines",
        "address": {
            "address_locality": "Paris",
            "postal_code": "75009"
        },
        "restaurant_url": "https://www.lafourchette.com/restaurant/Le Grand Cafe Capucines/25902#info"
    },
    {
        "id": "72640",
        "title": "Le Club Dauphin - Grand Hôtel du Cap Ferrat",
        "address": {
            "address_locality": "Saint-Jean-Cap-Ferrat",
            "postal_code": "06230"
        },
        "restaurant_url": "https://www.lafourchette.com/restaurant/Le Club Dauphin - Grand Hotel du Cap Ferrat/72640#info"
    },
    {
        "id": "4977",
        "title": "Le Saint-James - Nicolas Magie",
        "address": {
            "address_locality": "Bouliac",
            "postal_code": "33270"
        },
        "restaurant_url": "https://www.lafourchette.com/restaurant/Le Saint-James - Nicolas Magie/4977#info"
    },
    {
        "id": "299625",
        "title": "La Maison des Saveurs",
        "address": {
            "address_locality": "Nantes",
            "postal_code": "44100"
        },
        "restaurant_url": "https://www.lafourchette.com/restaurant/La Maison des Saveurs/299625#info"
    },
    {
        "id": "65680",
        "title": "La Maison des Saveurs",
        "address": {
            "address_locality": "Limoges",
            "postal_code": "87100"
        },
        "restaurant_url": "https://www.lafourchette.com/restaurant/La Maison des Saveurs/65680#info"
    },
    {
        "id": "61763",
        "title": "L'Eveil des Sens",
        "address": {
            "address_locality": "Montignyle-Tilleul",
            "postal_code": "6110"
        },
        "restaurant_url": "https://www.lafourchette.com/restaurant/L'Eveil des Sens/61763#info"
    },
    {
        "id": "364829",
        "title": "L'Eveil des Sens - Lille",
        "address": {
            "address_locality": "Lille",
            "postal_code": "59000"
        },
        "restaurant_url": "https://www.lafourchette.com/restaurant/L'Eveil des Sens - Lille/364829#info"
    },
    {
        "id": "78162",
        "title": "L'Éveil des Sens",
        "address": {
            "address_locality": "Genève",
            "postal_code": "CH-1205"
        },
        "restaurant_url": "https://www.lafourchette.com/restaurant/L'Eveil des Sens/78162#info"
    },
    {
        "id": "282127",
        "title": "L'Eveil des Sens",
        "address": {
            "address_locality": "Latresne",
            "postal_code": "33360"
        },
        "restaurant_url": "https://www.lafourchette.com/restaurant/L'Eveil des Sens/282127#info"
    },
    {
        "id": "78036",
        "title": "Jean Claude",
        "address": {
            "address_locality": "København",
            "postal_code": "2100"
        },
        "restaurant_url": "https://www.lafourchette.com/restaurant/Jean Claude/78036#info"
    },
    {
        "id": "66422",
        "title": "Chez Jean-Claude",
        "address": {
            "address_locality": "Paris",
            "postal_code": "75014"
        },
        "restaurant_url": "https://www.lafourchette.com/restaurant/Chez Jean-Claude/66422#info"
    },
    {
        "id": "41561",
        "title": "Chez Eve et Jean-Claude",
        "address": {
            "address_locality": "Cannes",
            "postal_code": "06400"
        },
        "restaurant_url": "https://www.lafourchette.com/restaurant/Chez Eve et Jean-Claude/41561#info"
    },
    {
        "id": "16855",
        "title": "Allium",
        "address": {
            "address_locality": "Barcelona",
            "postal_code": "08002"
        },
        "restaurant_url": "https://www.lafourchette.com/restaurant/Allium/16855#info"
    },
    {
        "id": "282585",
        "title": "Allium Ursinum",
        "address": {
            "address_locality": "Bordeaux",
            "postal_code": "33000"
        },
        "restaurant_url": "https://www.lafourchette.com/restaurant/Allium Ursinum/282585#info"
    },
    {
        "id": "3931",
        "title": "Restaurant William Frachot",
        "address": {
            "address_locality": "Dijon",
            "postal_code": "21000"
        },
        "restaurant_url": "https://www.lafourchette.com/restaurant/Restaurant William Frachot/3931#info"
    },
    {
        "id": "71118",
        "title": "La Robe",
        "address": {
            "address_locality": "Bordeaux",
            "postal_code": "33000"
        },
        "restaurant_url": "https://www.lafourchette.com/restaurant/La Robe/71118#info"
    },
    {
        "id": "72128",
        "title": "La Taverna di Roberto",
        "address": {
            "address_locality": "Bologna",
            "postal_code": "I-40125"
        },
        "restaurant_url": "https://www.lafourchette.com/restaurant/La Taverna di Roberto/72128#info"
    },
    {
        "id": "32929",
        "title": "La Robe de la Girafe",
        "address": {
            "address_locality": "Paris",
            "postal_code": "75011"
        },
        "restaurant_url": "https://www.lafourchette.com/restaurant/La Robe de la Girafe/32929#info"
    },
    {
        "id": "122",
        "title": "La Grande Cascade - Frédéric Robert",
        "address": {
            "address_locality": "Paris",
            "postal_code": "75016"
        },
        "restaurant_url": "https://www.lafourchette.com/restaurant/La Grande Cascade - Frederic Robert/122#info"
    },
    {
        "id": "79441",
        "title": "La Robe et le Palais",
        "address": {
            "address_locality": "Paris",
            "postal_code": "75001"
        },
        "restaurant_url": "https://www.lafourchette.com/restaurant/La Robe et le Palais/79441#info"
    },
    {
        "id": "34950",
        "title": "Hôtel Restaurant Spa La Robéyère",
        "address": {
            "address_locality": "Embrun",
            "postal_code": "05200"
        },
        "restaurant_url": "https://www.lafourchette.com/restaurant/Hotel Restaurant Spa La Robeyere/34950#info"
    },
    {
        "id": "337449",
        "title": "Comice",
        "address": {
            "address_locality": "Paris",
            "postal_code": "75016"
        },
        "restaurant_url": "https://www.lafourchette.com/restaurant/Comice/337449#info"
    }
]